name,address,bairro,link,lat,lng
Alexandre’s Bar,"Rua David Alves do Vale, 68 | Santa Rosa, Belo Horizonte - MG",Santa Rosa,https://comidadibuteco.com.br/buteco/alexandres-bar/,-19.863401106822668,-43.944169239553716
Amarelim do Prado,"Avenida Francisco Sá, 658 | Prado, Belo Horizonte - MG",Prado,https://comidadibuteco.com.br/buteco/amarelim-do-prado/,-19.9280595,-43.959751
Andrade’s Beer,"Rua Dona Geni, 32 |  Belo Horizonte - MG",Belo Horizonte - MG,https://comidadibuteco.com.br/buteco/andrades-beer/,-19.8037827,-43.99612125
Arcos Bar,"Rua da Bahia, 1144 | Centro, Belo Horizonte - MG",Centro,https://comidadibuteco.com.br/buteco/arcos-bar/,-19.92586953191069,-43.9376996233046
Armazém Santa Amélia,"Avenida da Sinfonia, 253 | Santa Amélia, Belo Horizonte - MG",Santa Amélia,https://comidadibuteco.com.br/buteco/armazem-santa-amelia/,-19.832557305710235,-43.97240626323761
Avalanche Espeteria,"Avenida Doutor Álvaro Camargos, 1113 | São João Batista, Belo Horizonte - MG",São João Batista,https://comidadibuteco.com.br/buteco/avalanche-espeteria/,-19.82858795,-43.962654
Azougue Fogo e Bar,"Rua do Ouro, 835 | Serra, Belo Horizonte - MG",Serra,https://comidadibuteco.com.br/buteco/azougue-fogo-e-bar/,-19.940361057270085,-43.92002453127008
Baiuca,"Rua Piauí, 1884 | Funcionários, Belo Horizonte - MG",Funcionários,https://comidadibuteco.com.br/buteco/baiuca/,-19.93000325271364,-43.92641321063096
Bar Bambú,"Rua Divisa Nova, 670 | Salgado Filho, Belo Horizonte - MG",Salgado Filho,https://comidadibuteco.com.br/buteco/3231-revision-v1/,-19.94401265623174,-43.98406322101843
Bar Bendita Baderna,"Rua Silva Fortes, 47 | União, Belo Horizonte - MG",União,https://comidadibuteco.com.br/buteco/bar-bendita-baderna/,-19.88117895,-43.9272578
Bar da Cíntia,"Rua Pastor Rui Franco, 257 | São João Batista (Venda Nova), Belo Horizonte - MG",São João Batista (Venda Nova),https://comidadibuteco.com.br/buteco/bar-da-cintia/,-19.816867562824537,-43.96947561246321
Bar da Fia,"Rua dos Astecas, 2722 | Santa Mônica, Belo Horizonte - MG",Santa Mônica,https://comidadibuteco.com.br/buteco/bar-da-fia/,-19.829923143377467,-43.979163665682265
Bar da Lu,"Rua Geralda Marinho, 41 | São João Batista (Venda Nova), Belo Horizonte - MG",São João Batista (Venda Nova),https://comidadibuteco.com.br/buteco/bar-da-lu/,-19.826883075136255,-43.96458532901545
Bar da Silvânia,"Rua Soares Nogueira, 801 | Camargos, Belo Horizonte - MG",Camargos,https://comidadibuteco.com.br/buteco/bar-da-silvania/,-19.940235654522017,-44.02160927107595
Bar do Bartolomeu,"Rua Arthur Luchesi, 356 | Santa Helena (Barreiro), Belo Horizonte - MG",Santa Helena (Barreiro),https://comidadibuteco.com.br/buteco/bar-do-bartolomeu/,-19.98513401512027,-44.01126486279129
Bar do Bem,"RUA VICENTINA COUTINHO CAMARGOS, 100, BELO HORIZONTE - MG",Álvaro Camargos,https://comidadibuteco.com.br/buteco/bar-do-bem/,-19.915362050391114,-44.00625884850015
Bar do Kim,"Rua Júlio de Castilho, 1071 | Palmeiras, Belo Horizonte – MG",Palmeiras,https://comidadibuteco.com.br/buteco/bar-do-kim/,,
Bar do Nelson,"Av Vicente Risola, 1000 | Belo Horizonte - MG",Belo Horizonte - MG,https://comidadibuteco.com.br/buteco/bar-do-nelson/,,
Bar do Primo,"Avenida Amazonas, 4649 | Nova Suíça, Belo Horizonte - MG",Nova Suíça,https://comidadibuteco.com.br/buteco/bar-do-primo/,-19.92976946138757,-43.97794508521424
Bar do Regis,"Rua Gávea, 422 | Jardim América, Belo Horizonte - MG",Jardim América,https://comidadibuteco.com.br/buteco/24790-revision-v1/,-19.938848935867405,-43.97524207547455
Bar do Romeu,"Rua Aniri, 8 | Guarani, Belo Horizonte - MG",Guarani,https://comidadibuteco.com.br/buteco/5665-revision-v1/,-19.843663018437844,-43.929969055110114
Bar dos Meninos,"Rua Lindolfo Deodoro, 503 | Salgado Filho, Belo Horizonte - MG",Salgado Filho,https://comidadibuteco.com.br/buteco/bar-dos-meninos/,-19.939650294667295,-43.978977414317406
Bar Du Du,"Rua Violeta, 369 | Esplanada, Belo Horizonte - MG",Esplanada,https://comidadibuteco.com.br/buteco/bar-du-du/,-19.90683458535765,-43.905051452747415
Bar e Restaurante Bom Sabor,"Rua Java, 386 | Nova Suíça, Belo Horizonte - MG",Nova Suíça,https://comidadibuteco.com.br/buteco/bar-e-restaurante-bom-sabor/,-19.933362674511667,-43.97467093506382
Bar e Restaurante do Joãozinho,"Rua Pinheiro Chagas, 295 | Barreiro, Belo Horizonte - MG",Barreiro,https://comidadibuteco.com.br/buteco/bar-e-restaurante-do-joaozinho/,-19.97779389908404,-44.01379308475379
Bar Estabelecimento,"Rua Monte Alegre, 160 | Serra, Belo Horizonte - MG",Serra,https://comidadibuteco.com.br/buteco/bar-estabelecimento/,-19.9363019,-43.9239093
Bar Junto Juntinho,"Rua Cura D’Ars, 542 | Prado, Belo Horizonte - MG",Prado,https://comidadibuteco.com.br/buteco/bar-junto-juntinho/,-19.92606935442189,-43.96407420199779
Bar Mania Mineira,"Rua Paracatu, 1099 | Santo Agostinho, Belo Horizonte - MG",Santo Agostinho,https://comidadibuteco.com.br/buteco/5668-revision-v1/,-19.93160235,-43.9544742
Bar Pompéu,"Rua São Miguel, 779 | Itapoã, Belo Horizonte - MG",Itapoã,https://comidadibuteco.com.br/buteco/3135-revision-v1/,-19.843188469923923,-43.956529387235776
Bar Stella,"Avenida Saramenha, 1599 | Guarani, Belo Horizonte - MG",Guarani,https://comidadibuteco.com.br/buteco/bar-stella/,-19.843990054375375,-43.918054094237704
Bar Temático Sta. Teresa,"Rua Pirite, 187 | Belo Horizonte - MG",Belo Horizonte - MG,https://comidadibuteco.com.br/buteco/bar-tematico-sta-teresa-2/,-19.910462294417723,-43.908416797194334
Barrigudinha Buteco,"Avenida dos Engenheiros, 1071 | Alípio de Melo, Belo Horizonte - MG",Alípio de Melo,https://comidadibuteco.com.br/buteco/barrigudinha-buteco/,-19.89029045,-44.00072135
Barzim dos amigos,"Rua Lindolfo de Azevedo, 1263 | Jardim América, Belo Horizonte - MG",Jardim América,https://comidadibuteco.com.br/buteco/barzim-dos-amigos/,-19.943468066296816,-43.97400836301153
Bazin Bar,"Rua Orozimbo Nonato, 1053 | Dona Clara, Belo Horizonte - MG",Dona Clara,https://comidadibuteco.com.br/buteco/bazin-bar/,-19.8579245451895,-43.93893163295735
Beco Restaurante,"Rua Tamoios, 232 | Belo Horizonte - MG",Belo Horizonte - MG,https://comidadibuteco.com.br/buteco/beco-restaurante/,-19.76188429030339,-43.945791667013765
Benjamin Bar,"Rua Coronel José Benjamim, 770 | Padre Eustáquio, Belo Horizonte - MG",Padre Eustáquio,https://comidadibuteco.com.br/buteco/benjamin-bar/,-19.919088350751416,-43.97303009152189
Boteco 86,"Rua Jacarina, 86 | Padre Eustáquio, Belo Horizonte - MG",Padre Eustáquio,https://comidadibuteco.com.br/buteco/boteco-86/,-19.91325395382037,-43.971932097045055
Botequim Buritis,"Rua Vitório Magnavaca, 39 | Buritis, Belo Horizonte - MG",Buritis,https://comidadibuteco.com.br/buteco/botequim-buritis/,,
Botequim de Lourdes,"Rua Curitiba, 2039 | Lourdes, Belo Horizonte - MG",Lourdes,https://comidadibuteco.com.br/buteco/botequim-de-lurdes/,-19.93061275,-43.94436700202562
Buteco do Lili,"R. Líbero Badaró, 493 - Dona Clara, Belo Horizonte - MG, 31255-620",,https://comidadibuteco.com.br/buteco/3151-autosave-v1/,,
Buteco do Rod,"Rua José Moura Peçanha, 12 | Ouro Preto, Belo Horizonte - MG",Ouro Preto,https://comidadibuteco.com.br/buteco/buteco-do-rod/,-19.8743166,-43.9881223
Buteco Tô D’Boa,"Avenida Virgílio de Melo Franco, 400 | Jardim Atlântico, Belo Horizonte - MG",Jardim Atlântico,https://comidadibuteco.com.br/buteco/buteco-to-dboa/,,
Buteco’s Bar,"R. Ernesto Braga, 2 - Jardim Atlântico, Belo Horizonte - MG, 31555-040",,https://comidadibuteco.com.br/buteco/3145-revision-v1/,,
Butiquim On Cê Tá?,"Avenida Gen. Olímpio Mourão Filho, 754 | Itapoã, Belo Horizonte - MG",Itapoã,https://comidadibuteco.com.br/buteco/butiquim-on-ce-ta/,-19.82910110851873,-43.96053140817833
Café Bahia,"Rua Tupis, 369 | Centro, Belo Horizonte - MG",Centro,https://comidadibuteco.com.br/buteco/3147-revision-v1/,-19.5613341,-44.077932450000006
Café Palhares,"Rua dos Tupinambás, 638 | Centro, Belo Horizonte - MG",Centro,https://comidadibuteco.com.br/buteco/3149-revision-v1/,-19.917892005303585,-43.938262023331596
Camisola Bar,"Rua Luther King, 242 | Cidade Nova, Belo Horizonte - MG",Cidade Nova,https://comidadibuteco.com.br/buteco/camisola-bar/,-19.8926606,-43.92460595
Canela Amarela,"Praça Leonardo Gutierrez, 195 | Gutierrez, Belo Horizonte - MG",Gutierrez,https://comidadibuteco.com.br/buteco/canela-amarela/,-19.935798826025277,-43.959903814795574
Cantina Arte Quintal,"Rua Realengo, 150 | Caiçara, Belo Horizonte - MG",Caiçara,https://comidadibuteco.com.br/buteco/cantina-arte-quintal/,-19.90140955725858,-43.97565227357693
Cantinho da Baiana,"Avenida Itaité, 422 | São Geraldo, Belo Horizonte - MG",São Geraldo,https://comidadibuteco.com.br/buteco/cantinho-da-baiana/,-19.897207709568896,-43.89602293835413
Casa da Madrinha,"Avenida Barbacena, 212 | Barro Preto, Belo Horizonte - MG",Barro Preto,https://comidadibuteco.com.br/buteco/casa-da-madrinha/,-19.924049698131675,-43.95319322725962
Cervejaria Pajé,"Avenida Capim Branco, 419 | Vista Alegre, Belo Horizonte - MG",Vista Alegre,https://comidadibuteco.com.br/buteco/cervejaria-paje/,-19.954792388324066,-43.997605826506536
Chapa Mágica,"Avenida Waldomiro Lobo, 305 | Guarani, Belo Horizonte - MG",Guarani,https://comidadibuteco.com.br/buteco/chapa-magica/,-19.844119252856114,-43.92428938994748
Choperia América Norte Sul,"Rua Chico Rei, 190 | Estrela do Oriente, Belo Horizonte - MG",Estrela do Oriente,https://comidadibuteco.com.br/buteco/choperia-america-norte-sul/,-19.96158723214756,-43.984759592106805
Chopp da Esquina,"Rua Garret, 263 | Nova Granada, Belo Horizonte - MG",Nova Granada,https://comidadibuteco.com.br/buteco/chopp-da-esquina/,-19.943279606716946,-43.96842622631129
Companhia do Dino,"Avenida Joaquim Clemente, 682 | Floramar, Belo Horizonte - MG",Floramar,https://comidadibuteco.com.br/buteco/companhia-do-dino/,-19.839647788662486,-43.93327740586607
Conectados Bar,"Avenida Francisco Sá, 280 | Prado, Belo Horizonte - MG",Prado,https://comidadibuteco.com.br/buteco/conectados-bar/,-19.92434404143754,-43.95926892340032
COSMOS,"Rua Vicente Risola, 1305 - Santa Ines, Belo Horizonte - MG, 31080-160",Ana Lúcia,https://comidadibuteco.com.br/buteco/cosmos/,-19.889998410262816,-43.908624064741424
Deck Boi na Brasa,"Rua Desembargador José Satyro, 302 | Castelo, Belo Horizonte - MG",Castelo,https://comidadibuteco.com.br/buteco/deck-boi-na-brasa/,-19.888642555254236,-43.996049582070974
Dona Dora,"Rua Rio de Janeiro, 1205 | Centro, Belo Horizonte - MG",Centro,https://comidadibuteco.com.br/buteco/dona-dora/,-19.558641168490723,-44.07878125786446
Dona Ju Gastro Bar,"Estrada dos Borges, 1520 | Jardim Vitória, Belo Horizonte - MG",Jardim Vitória,https://comidadibuteco.com.br/buteco/dona-ju-gastro-bar/,,
Dona Suica,"Rua João Samaha, 390 | São João Batista (Venda Nova), Belo Horizonte - MG",São João Batista (Venda Nova),https://comidadibuteco.com.br/buteco/3157-revision-v1/,-19.82401343647724,-43.96279402993644
Ember BBQ,"Rua São Romão, 460 | São Pedro, Belo Horizonte - MG",São Pedro,https://comidadibuteco.com.br/buteco/ember-bbq/,-19.945072754968187,-43.940222315167496
Espetinho do Boi,"Rua São Paulo da Cruz, 357 | Barreiro, Belo Horizonte - MG",Barreiro,https://comidadibuteco.com.br/buteco/espetinho-do-boi/,-19.981062223832854,-44.01338336751344
Espetinhos do Paulão,"Rua Álvaro Mata, 466 | Belo Horizonte - MG",Belo Horizonte - MG,https://comidadibuteco.com.br/buteco/espetinhos-do-paulao/,-19.886018508186137,-43.957879869313906
Espettinho.com,"Rua Eli Seabra Filho, 510 | Buritis, Belo Horizonte - MG",Buritis,https://comidadibuteco.com.br/buteco/espetinho-com/,-19.975546700412117,-43.97234653460523
Fogão de Minas,"Avenida Doutor Cristiano Guimarães, 1911 | Planalto, Belo Horizonte - MG",Planalto,https://comidadibuteco.com.br/buteco/fogao-de-minas/,-19.822102450000003,-43.952501350000006
Garagge Vintage,"Avenida Doutor Cristiano Guimarães, 1258 | Planalto, Belo Horizonte - MG",Planalto,https://comidadibuteco.com.br/buteco/garagge-vintage/,-19.8315762,-43.9547337
Geraldin da Cida,"Rua Contria, 1459 | Grajaú, Belo Horizonte - MG",Grajaú,https://comidadibuteco.com.br/buteco/geraldin-da-cida/,-19.93634203030694,-43.96826804746389
Golden Grill,"Rua Amílcar Cabral, 515 | Milionários, Belo Horizonte - MG",Milionários,https://comidadibuteco.com.br/buteco/golden-grill/,-19.98377343664179,-44.00363873473719
Iracema Bar,"Rua Almandina, 56 | Belo Horizonte - MG",Belo Horizonte - MG,https://comidadibuteco.com.br/buteco/iracema-bar/,-19.91829619114048,-43.92465079980811
Ivo Grill,"Rua Professor Tristão da Cunha, 183 | Belo Horizonte - MG",Belo Horizonte - MG,https://comidadibuteco.com.br/buteco/ivo-grill/,-19.838756976514354,-43.94649477255857
Já To Inno,"Rua Benjamim Dias, 379 | Belo Horizonte - MG",Belo Horizonte - MG,https://comidadibuteco.com.br/buteco/3165-revision-v1/,-20.381055000874102,-43.51077432020584
Juzé Bar,"Rua Carlos Sá, 180 | Jardim Atlântico, Belo Horizonte - MG",Jardim Atlântico,https://comidadibuteco.com.br/buteco/juze-bar/,-19.84148711505686,-43.98904446092647
Köbes Emporium Bar,"Rua Professor Raimundo Nonato, 31 | Santa Tereza, Belo Horizonte - MG",Santa Tereza,https://comidadibuteco.com.br/buteco/kobes-emporium-bar/,-19.9104906,-43.9160165
Koqueiros Bar,"Avenida Silviano Brandão, 1293 | Sagrada Família, Belo Horizonte - MG",Sagrada Família,https://comidadibuteco.com.br/buteco/3169-revision-v1/,-19.910912713729186,-43.926046938624324
Lá Ele Bar,"Av. General Carlos Guedes, 165 | Planalto, Belo Horizonte - MG",Planalto,https://comidadibuteco.com.br/buteco/la-ele-bar/,-19.837371194803445,-43.948067841731685
Leo da Quadra,"Rua Oliveira Lisboa, 107 | Barreiro, Belo Horizonte - MG",Barreiro,https://comidadibuteco.com.br/buteco/leo-da-quadra/,-19.976163929422658,-44.01310469334403
Locomotiva’s Bar,"Rua Carmésia, 568 | Santa Inês, Belo Horizonte - MG",Santa Inês,https://comidadibuteco.com.br/buteco/locomotivas-bar-2/,-19.881509348717948,-43.90905247730105
Magnífico Quintal,"Rua Jefferson de Oliveira, 56 | Santa Amélia, Belo Horizonte - MG",Santa Amélia,https://comidadibuteco.com.br/buteco/magnifico-quintal/,-19.842134792706112,-43.97591042310797
Magrelo’s Bar,"Avenida Serrana, 635 | Serrano, Belo Horizonte - MG",Serrano,https://comidadibuteco.com.br/buteco/magrelos-bar-2/,-19.872857696406218,-44.01359349625381
Mamute Bar,"Rua Brás Cubas, 116 | Cruzeiro, Belo Horizonte - MG",Cruzeiro,https://comidadibuteco.com.br/buteco/mamute-gastrobar/,-19.944385750000002,-43.92823975
Marina’s Bar,"Rua José Baroni, 13 | Santa Efigênia, Belo Horizonte - MG",Santa Efigênia,https://comidadibuteco.com.br/buteco/marinas-bar/,-19.92377263640383,-43.90671287832302
Mineiros Beer,"Rua Romualdo Lopes Cançado, 399 | Castelo, Belo Horizonte - MG",Castelo,https://comidadibuteco.com.br/buteco/mineiros-beer/,-19.888197218520965,-43.99687502427013
Mulão,"Rua Marambaia, 291 | Caiçara, Belo Horizonte - MG",Caiçara,https://comidadibuteco.com.br/buteco/3177-revision-v1/,-19.9090992,-43.9683517
Nosso Spetim,"Rua dos Astecas, 3219 | Santa Mônica, Belo Horizonte - MG",Santa Mônica,https://comidadibuteco.com.br/buteco/nosso-spetim/,-19.829923143377467,-43.979163665682265
O Fino do Alho,"Rua Capitão Sérgio Pires, 41 | Minascaixa, Belo Horizonte - MG",Minascaixa,https://comidadibuteco.com.br/buteco/o-fino-do-alho/,-19.806612760721766,-43.95633556766752
Oratório Bar,"Avenida Brasil, 161 | Santa Efigênia, Belo Horizonte - MG",Santa Efigênia,https://comidadibuteco.com.br/buteco/oratorio-bar/,-19.92529802625899,-43.923808103206774
Parada 10.95 Bar,"Avenida dos Engenheiros, 1095 | Alípio de Melo, Belo Horizonte - MG",Alípio de Melo,https://comidadibuteco.com.br/buteco/parada-10-95-bar/,-19.89029045,-44.00072135
Parada do Sabor,"Avenida General Carlos Guedes, 346 | Planalto, Belo Horizonte - MG",Planalto,https://comidadibuteco.com.br/buteco/parada-do-sabor/,-19.837371194803445,-43.948067841731685
Pé de Cana,"Rua Flórida, 15 | Sion, Belo Horizonte - MG",Sion,https://comidadibuteco.com.br/buteco/pe-de-cana/,-19.9485952,-43.9338742
Pé de Goiaba,"Avenida Amazonas, 4676 | Nova Suíssa, Belo Horizonte - MG",Nova Suíssa,https://comidadibuteco.com.br/buteco/3179-revision-v1/,-19.930376963405514,-43.98123331617714
Planeta Lúpulo,"Avenida Guarapari, 108 | Santa Amélia, Belo Horizonte - MG",Santa Amélia,https://comidadibuteco.com.br/buteco/planeta-lupulo/,-19.83885421466154,-43.97737204979582
PoiZé Bar e Petisqueira,"Rua Pium-I, 686 | Cruzeiro, Belo Horizonte - MG",Cruzeiro,https://comidadibuteco.com.br/buteco/poize-bar-e-petisqueira/,-19.942643402406738,-43.929918691375356
Prado Beer,"Avenida Francisco Sá, 590 | Prado, Belo Horizonte - MG",Prado,https://comidadibuteco.com.br/buteco/prado-beer/,-19.92434404143754,-43.95926892340032
Prosa Boa,"Avenida Doutor Cristiano Guimarães, 1480 | Planalto, Belo Horizonte - MG",Planalto,https://comidadibuteco.com.br/buteco/prosa-boa/,-19.838171383566614,-43.95296566870635
Quinteiro Bar e Restaurante,"Rua Salinas, 1008 | Floresta, Belo Horizonte - MG",Floresta,https://comidadibuteco.com.br/buteco/quinteiro-bar-e-restaurante/,-19.914375618032295,-43.92671733145004
Quioxque Botequim Carioca,"Rua Henrique Badaró Portugal, 157 | Buritis, Belo Horizonte - MG",Buritis,https://comidadibuteco.com.br/buteco/quioxque-butiquim-carioca/,-19.97444851700299,-43.97594926458429
Quitandas da Tia Nice Bar,"Rua Alabastro, 146 | Sagrada Família, Belo Horizonte – MG",Sagrada Família,https://comidadibuteco.com.br/buteco/quitandas-da-tia-nice-bar/,-19.909275292677247,-43.920558466884536
Rancho do Manoel,"Rua Isabel Bueno, 1100 | Belo Horizonte - MG",Belo Horizonte - MG,https://comidadibuteco.com.br/buteco/rancho-do-manoel/,,
Recanto Vovó Tela,"Rua Tenente Marino Freire, 270 | Maria Helena, Belo Horizonte - MG",Maria Helena,https://comidadibuteco.com.br/buteco/5701-revision-v1/,-19.80189697211595,-43.993677556505595
Regis Bar,"Avenida Vinte e Oito de Setembro, 872 | Belo Horizonte - MG",Belo Horizonte - MG,https://comidadibuteco.com.br/buteco/regis-bar/,,
Rei do Peixe,"Rua Ramalho Ortigão, 735 | Santa Branca, Belo Horizonte - MG",Santa Branca,https://comidadibuteco.com.br/buteco/rei-do-peixe/,-19.830718245181973,-43.965498280702384
Resenha da Naty,"Rua Gonçalves Ledo, 288 | Cachoeirinha, Belo Horizonte - MG",Cachoeirinha,https://comidadibuteco.com.br/buteco/resenha-da-naty/,-19.893016344054676,-43.946091921137324
Restaurante Jorge Americano,"Avenida Augusto de Lima, 744 | Centro, Belo Horizonte - MG",Centro,https://comidadibuteco.com.br/buteco/restaurante-jorge-americano/,-19.9225815,-43.943024317444
S.O.S PUB,"Rua Padre José Maurício, 1126 | Vista Alegre, Belo Horizonte - MG",Vista Alegre,https://comidadibuteco.com.br/buteco/s-o-s-pub/,-19.95208937769635,-43.99264087022158
Santa Boemia,"Rua Mármore, 534 | Santa Tereza, Belo Horizonte - MG",Santa Tereza,https://comidadibuteco.com.br/buteco/santa-boemia/,-19.916294791842603,-43.91828162268555
Santuário Retrô,"Avenida Padre Vieira, 150 | Minas Brasil, Belo Horizonte - MG",Minas Brasil,https://comidadibuteco.com.br/buteco/santuario-retro/,-19.916021692577388,-43.98999467525323
Seu Braz,"Avenida Portugal, 4325 | Itapoã, Belo Horizonte - MG",Itapoã,https://comidadibuteco.com.br/buteco/seu-braz/,-19.843947006926896,-43.95813771318391
Silvio’s Bar,"Rua Begônia, 199 | Esplanada, Belo Horizonte - MG",Esplanada,https://comidadibuteco.com.br/buteco/silvios-bar/,-19.9024451,-43.9055043
Sinhá Erozitha Bistrôteco,"Rua Santo Amaro, 257 | Sagrada Família, Belo Horizonte - MG",Sagrada Família,https://comidadibuteco.com.br/buteco/sinha-erozitha-bistroteco/,-19.901183376126724,-43.91665115170888
Sô Bar,"Avenida Altamiro Avelino Soares, 426 | Castelo, Belo Horizonte - MG",Castelo,https://comidadibuteco.com.br/buteco/so-bar/,-19.880155461434203,-44.0024485443835
Spetim,"Rua Ilacir Pereira Lima, 518 | Silveira, Belo Horizonte - MG",Silveira,https://comidadibuteco.com.br/buteco/spetim/,-19.89185976285222,-43.929370968954515
Tanganica Art Bar,"Rua Padre Demerval Gomes, 380 | Coração Eucarístico, Belo Horizonte - MG",Coração Eucarístico,https://comidadibuteco.com.br/buteco/tanganica-art-bar/,-19.926767176001892,-43.9901953678608
The Butcher,"Avenida Ressaca, 353 | Coração Eucarístico, Belo Horizonte - MG",Coração Eucarístico,https://comidadibuteco.com.br/buteco/the-butcher/,-19.921143027886192,-43.986082105852695
Toca do Ogro,"Rua Professor Nelson de Sena, 4 | Pampulha, Belo Horizonte - MG",Pampulha,https://comidadibuteco.com.br/buteco/toca-do-ogro/,-19.8543190851895,-43.95686131422551
Toninho – Alto Forno,"Rua Miracema, 100 | Santo André, Belo Horizonte - MG",Santo André,https://comidadibuteco.com.br/buteco/5706-revision-v1/,-19.899984105838737,-43.95229765643988
Tropeiro do Lisboa,"Avenida Leontino Francisco Alves, 506 | Serra Verde (Venda Nova), Belo Horizonte - MG",Serra Verde (Venda Nova),https://comidadibuteco.com.br/buteco/tropeiro-do-lisboa/,-19.800264170559636,-43.95870716030896
Us Motoca,"Rua Blenda, 91 | Camargos, Belo Horizonte - MG",Camargos,https://comidadibuteco.com.br/buteco/3187-revision-v1/,-19.940770509632213,-44.014807394683814
Xambar,"Avenida Augusto de Lima, 233 | Centro, Belo Horizonte - MG",Centro,https://comidadibuteco.com.br/buteco/xambar/,-19.9247161,-43.9375956
Xico da Kafua,"Avenida Itaú, 1195 - João Pinheiro, Belo Horizonte - MG",Vila Delta,https://comidadibuteco.com.br/buteco/xico-da-kafua/,-19.92303628425632,-44.00341558477092
Xico do Churrasco,"Av Altamiro Avelino Soares, 920 - Castelo - Belo Horizonte - MG",Castelo,https://comidadibuteco.com.br/buteco/xico-do-churrasco/,-19.880155461434203,-44.0024485443835
Zé Bolacha,"Rua das Melancias, 35 | Vila Cloris, Belo Horizonte - MG",Vila Cloris,https://comidadibuteco.com.br/buteco/ze-bolacha/,-19.82119725,-43.951548450000004
Zoo Bar,"Avenida Otacílio Negrão de Lima, 7844 | Pampulha, Belo Horizonte - MG",Pampulha,https://comidadibuteco.com.br/buteco/zoo-bar/,-19.85458895,-44.00405852633679
