name,address,bairro,link,lat,lng
Bar da Árvore,"Rua São Miguel Arcanjo, 1265 | Jardim Nova Europa, Campinas - SP",Jardim Nova Europa,https://comidadibuteco.com.br/buteco/bar-da-arvore-2/,-22.940420238949265,-47.05633565397826
Bar da Loira,"Rua Conselheiro Martim Francisco, 443 | Campinas - SP",Campinas - SP,https://comidadibuteco.com.br/buteco/bar-da-loira/,-22.922729478343005,-47.10295900815467
Bar da Vila,"Rua Madalena Barbosa Ferreira, 178 | Campinas - SP",Campinas - SP,https://comidadibuteco.com.br/buteco/bar-da-vila/,-22.922176921102015,-47.03435461527193
Bar do Baú,"Avenida Francisco de Paula Oliveira Nazareth, 1193 | Campinas - SP",Campinas - SP,https://comidadibuteco.com.br/buteco/bar-do-bau-2/,-22.920099374754518,-47.085617618166026
Bar do Braz,"Rua Itapecirica da Serra, 1445 | Campinas - SP",Campinas - SP,https://comidadibuteco.com.br/buteco/bar-do-braz/,-22.926243946615834,-47.08619298697763
Bar do Cação,"Av. Doutor Armando Sales de Oliveira, 55 | Campinas - SP",Campinas - SP,https://comidadibuteco.com.br/buteco/bar-do-cacao/,,
Bar do Carioca,"Rua Erasmo Braga, 1067 | Jardim Chapadão, Campinas - SP",Jardim Chapadão,https://comidadibuteco.com.br/buteco/3330-revision-v1/,-22.8942899,-47.077822
Bar do Durante,"Praça Menegon, 93 |  Jaguariúna - SP",Jaguariúna - SP,https://comidadibuteco.com.br/buteco/bar-do-durante/,-22.678727299996424,-46.984258955635696
Bar do Furlan,"Rua Delfino Cintra, 539 | Botafogo, Campinas - SP",Botafogo,https://comidadibuteco.com.br/buteco/bar-do-furlan/,-22.89981335155353,-47.068008245054955
Bar do Léo,"Rua José dos Santos, 260 |  Campinas - SP",Campinas - SP,https://comidadibuteco.com.br/buteco/bar-do-leo/,-22.90982021286962,-47.09964910240619
Bar do Luís,"Rua Paraná, 216 | Campinas - SP",Campinas - SP,https://comidadibuteco.com.br/buteco/bar-do-luis/,-22.921641794056292,-47.074278224850254
Bar do Mineiro,"Tarcisio Villela Lima, 441 | Jaguariúna - SP",Jaguariúna - SP,https://comidadibuteco.com.br/buteco/bar-do-mineiro-2/,-22.696672910380396,-47.004127889410555
Bar do Nicola,"Rua Dona Maria Umbelina Couto, 644 | Taquaral, Campinas - SP",Taquaral,https://comidadibuteco.com.br/buteco/bar-do-nicola/,-22.8829057,-47.0552876
Bar do Português,"Rua Antônio Cezarino, 497 | Centro, Campinas - SP",Centro,https://comidadibuteco.com.br/buteco/bar-do-portugues/,-22.904144193487657,-47.05342731704671
Bar do Rafa,"Rua Benjamin Constant, |Campinas - SP",Campinas - SP,https://comidadibuteco.com.br/buteco/23011-revision-v1/,-22.74344853052576,-47.32769369250366
Bar do Saulo,"Avenida Guarani, 341 | Jardim Guarani, Campinas - SP",Jardim Guarani,https://comidadibuteco.com.br/buteco/bar-do-saulo-2/,,
Bar do Seo Fernando,"Rua Heraldo Marques, 5 | Chácara da Barra, Campinas - SP",Chácara da Barra,https://comidadibuteco.com.br/buteco/bar-do-seo-fernando/,-22.888594942089203,-47.038435562485475
Bar do Soares,"Avenida Ayrton Senna da Silva, 404 |  Campinas - SP",Campinas - SP,https://comidadibuteco.com.br/buteco/bar-do-soares-2/,-22.91231958003848,-47.04934981758679
Bar do Vô Mirão,"Avenida Palestina, 166 | Campinas - SP",Campinas - SP,https://comidadibuteco.com.br/buteco/bar-do-vo-mirao/,-22.8797136,-47.0368575
Bar Dona Flor,"Rua Doutor Rafael Sales, 828 | Campinas - SP",Campinas - SP,https://comidadibuteco.com.br/buteco/bar-dona-flor/,-22.898158953314955,-47.08200803078573
Bar Du 6,"Rua Buarque de Macedo, 695 | Jardim Brasil, Campinas - SP",Jardim Brasil,https://comidadibuteco.com.br/buteco/bar-du-6/,-22.8834338,-47.0657446
Bar Preste Atenção,"Avenida Barão Geraldo de Resende, 52 | Campinas - SP",Campinas - SP,https://comidadibuteco.com.br/buteco/3338-revision-v1/,,
Bardellas,"Rua Rodolpho Liner, 10 | Campinas - SP",Campinas - SP,https://comidadibuteco.com.br/buteco/bardellas/,-22.91834034576271,-47.11171784421365
Boteco do Buza,"Rua Bolívia, 2 | Campinas - SP",Campinas - SP,https://comidadibuteco.com.br/buteco/boteco-do-buza/,-22.927353953714423,-47.06449956383292
Boteco do Chicão,"Avenida Barão de Itapura, 2159 | Jardim Guanabara, Campinas - SP",Jardim Guanabara,https://comidadibuteco.com.br/buteco/boteco-do-chicao/,-22.887818299779944,-47.06044256402224
Boteco do Pezão,"Rua Evaristo da Veiga, 111 | Campinas - SP",Campinas - SP,https://comidadibuteco.com.br/buteco/18305-2/,-22.8486948,-47.0709028
Boteco Sem Frescura,"Avenida Doutor Betim, 594 | Campinas - SP",Campinas - SP,https://comidadibuteco.com.br/buteco/boteco-sem-frescura/,-22.928390124022044,-47.05533179564189
Boteko do Cunhado,"Rua Leôncio Brasileiro, 294 | Campinas - SP",Campinas - SP,https://comidadibuteco.com.br/buteco/boteko-do-cunhado/,-22.9637101734031,-47.11182601845885
Botequim de Barão,"Avenida Santa Isabel, 513 | Campinas - SP",Campinas - SP,https://comidadibuteco.com.br/buteco/botequim-de-barao/,-22.8243317,-47.0829809
Botiquim Pedro II,"Avenida Doutor Moraes Sales, 929 | Centro, Campinas - SP",Centro,https://comidadibuteco.com.br/buteco/botequim-pedro-ii/,-22.908004335546217,-47.06000441493297
Cantina 85,"Rua Nazaré Paulista, 858 | Chácara da Barra, Campinas - SP",Chácara da Barra,https://comidadibuteco.com.br/buteco/cantina-85/,-22.89194840559032,-47.03742575053588
Casquinha Bar,"Rua Doutor Sampaio Ferraz, 496 | Cambuí, Campinas - SP",Cambuí,https://comidadibuteco.com.br/buteco/casquinha-bar/,-22.891974451843332,-47.05022817423647
Chico Toicim Bar,"Avenida Monsenhor Jerônimo Baggio, 246 | Campinas - SP",Campinas - SP,https://comidadibuteco.com.br/buteco/chico-toicim-bar/,-22.88213200343581,-47.06216278471667
Collab Bar,"Avenida Doutor Arlindo Joaquim de Lemos, 1033 |Campinas - SP",Campinas - SP,https://comidadibuteco.com.br/buteco/collab-bar/,-22.921105501640238,-47.040729120059055
Dom Dama,"Rua Barão de Itapura, 3404 | Jardim Campinas, Campinas - SP",Jardim Campinas,https://comidadibuteco.com.br/buteco/dom-dama/,-22.89209076286414,-47.19221340425356
Edu Bar de Minas,"Rua Doutor Osvaldo Cruz, 808 | Taquaral, Campinas - SP",Taquaral,https://comidadibuteco.com.br/buteco/edu-bar-de-minas/,-22.885231967393775,-47.058484963258785
Empório D’ Primeira,"Rua São Bento, 140 | Campinas - SP",Campinas - SP,https://comidadibuteco.com.br/buteco/emporio-d-primeira/,-22.8831572,-47.06444745
Eskina Bar,"Rua Horácio Leonardi, 12 | Barão de Geraldo, Campinas - SP",Barão de Geraldo,https://comidadibuteco.com.br/buteco/3336-autosave-v1/,-22.8279832,-47.0798719
Espaço In Bar,"Avenida São José dos Campos, 1016 | Jardim Nova Europa, Campinas - SP",Jardim Nova Europa,https://comidadibuteco.com.br/buteco/espaco-in-bar/,-22.95465835,-47.059917
Esquinão,"Rua Coronel Alfredo Augusto do Nascimento, 62 | Sousas, Campinas - SP",Sousas,https://comidadibuteco.com.br/buteco/esquinao/,-22.87903207038496,-46.960889083929764
Estação Aquidaban,"Avenida Francisco Glicério, 325 | Campinas - SP",Campinas - SP,https://comidadibuteco.com.br/buteco/estacao-aquidaban/,-22.91020012358614,-47.05694775452568
Estação Campineira,"Rua Doutor Sales de Oliveira, 232 | Campinas - SP",Campinas - SP,https://comidadibuteco.com.br/buteco/estacao-campineira/,-22.906499189728034,-47.081399596795606
Garten Bar,"Rua Carolina Florence, 1339 | Jardim Guanabara, Campinas - SP",Jardim Guanabara,https://comidadibuteco.com.br/buteco/garten-bar/,-22.887089810563307,-47.05926865733233
Loschibar,"Rua das Cravinas, 11 |  Campinas - SP",Campinas - SP,https://comidadibuteco.com.br/buteco/loshibar/,-22.93743561279379,-47.09239016055776
Malagueta Bar,"Avenida Padre Almeida Garret, 40 | Parque Taquaral, Campinas - SP",Parque Taquaral,https://comidadibuteco.com.br/buteco/malagueta-bar/,-22.86883897393156,-47.057963373717776
Me Breja,"Rua Adelino Martins, 402 | Mansões Santo Antônio, Campinas - SP",Mansões Santo Antônio,https://comidadibuteco.com.br/buteco/me-breja/,-22.8534152,-47.05351545
Miúdo,"Rua Agostinho Pattaro, 211 | Campinas - SP",Campinas - SP,https://comidadibuteco.com.br/buteco/miudo/,-22.824618772708927,-47.08394176827669
Pastel da Isabel,"Rua São Bartolomeu, 498 | , Sumaré - SP",AR3 - Matão,https://comidadibuteco.com.br/buteco/pastel-da-isabel/,-22.833761292561483,-47.15645296732361
Pé na Praia,"Rua Barros Monteiro, 284 | Jardim Guanabara, Campinas - SP",Jardim Guanabara,https://comidadibuteco.com.br/buteco/pe-na-praia/,-22.8893983,-47.0669646
Poeta Grill,"Avenida Adão Focesi, 1062 | Campinas - SP",Campinas - SP,https://comidadibuteco.com.br/buteco/poeta-grill/,-22.932401122293815,-47.081415143944575
Possante Bar,"Avenida Barão de Itapura, 2964 | Jardim Guanabara, Campinas - SP",Jardim Guanabara,https://comidadibuteco.com.br/buteco/3359-revision-v1/,-22.892027257625244,-47.063780534701216
Quintal do Lindomar,"Rua Antônio Francisco de Andrade, 271 | Campinas - SP",Campinas - SP,https://comidadibuteco.com.br/buteco/quintal-do-lindomar/,-22.916821447265793,-47.044542583438925
Quiosque da Horta,"Rua Dr. José Ferreira de Camargo, 1221 | Nova Campinas, Campinas - SP",Nova Campinas,https://comidadibuteco.com.br/buteco/3361-revision-v1/,-22.905334680083218,-47.04158348707081
Rei do Joelho,"Rua Doutor Osvaldo Cruz, 151 | Taquaral, Campinas - SP",Taquaral,https://comidadibuteco.com.br/buteco/3365-revision-v1/,-22.8857658,-47.057987
Santa Esquina,"Rua José Ferreira da Silva, 377 | Campinas - SP",Campinas - SP,https://comidadibuteco.com.br/buteco/santa-esquina/,-22.94194861664073,-47.06412870780568
Santo Espeto,"Avenida Baden Powell, 1035 | Jardim Nova Europa, Campinas - SP",Jardim Nova Europa,https://comidadibuteco.com.br/buteco/santo-espeto/,-22.9453120766322,-47.05225106928103
Seo Bar,"Avenida Doutor Carlos de Campos, 584 | Campinas - SP",Campinas - SP,https://comidadibuteco.com.br/buteco/seo-bar/,-22.911296427010242,-47.083163864068915
Seo Porqueta – The King of Pork,"Rua José Paulino, 1906 | Vila Itapura, Campinas - SP",Vila Itapura,https://comidadibuteco.com.br/buteco/seo-porqueta-the-king-of-pork/,-22.895965038823476,-47.06605707316841
Seo Roma Bar e Restaurante,"Rua Rio Grande do Sul, 496 | Vila Santana, Campinas - SP",Vila Santana,https://comidadibuteco.com.br/buteco/seo-roma-bar-e-restaurante/,-22.966072963937147,-46.991549720765796
Stadium Bar,"Av. Dr Armando Sales de Oliveira, 279 | Campinas - SP",Campinas - SP,https://comidadibuteco.com.br/buteco/stadium-bar/,,
Tonel Boteco e Espetaria,"Avenida das Amoreiras, 4884 | Campinas - SP",Campinas - SP,https://comidadibuteco.com.br/buteco/tonel-boteco-e-espetaria/,-22.9323240587936,-47.08982774906764
Villa Maria,"Av - Praça Emílio Marconato, 653 - Chácara Primavera, Jaguariúna - SP, 13916-140",,https://comidadibuteco.com.br/buteco/villa-maria/,,
