name,address,bairro,link,lat,lng
Adega Bar,"Av. Dr. Francisco Álvares de Assis, 490 | Retiro, Juiz de Fora - MG",Retiro,https://comidadibuteco.com.br/buteco/adega-bar/,-21.781982479702304,-43.298946560115944
Antero Bar e Restaurante,"Rua Antônio de Paula Mendes, 435 | Bandeirantes, Juiz de Fora - MG",Bandeirantes,https://comidadibuteco.com.br/buteco/antero-bar-e-restaurante/,-21.722175669226154,-43.35624560724393
Bar Dias,"Rua Luiz Rocha, 2 | Santa Terezinha, Juiz de Fora - MG",Santa Terezinha,https://comidadibuteco.com.br/buteco/3695-revision-v1/,-21.732271589342368,-43.364445324218
Bar do Abílio,"Rua Fonseca Hermes, 180 | Centro, Juiz de Fora - MG",Centro,https://comidadibuteco.com.br/buteco/3697-revision-v1/,-21.758505400297267,-43.346377543619205
Bar do Antônio,"Rua José Lourenço, 1262 | São Pedro, Juiz de Fora - MG",São Pedro,https://comidadibuteco.com.br/buteco/bar-do-antonio/,-21.770170121204664,-43.37876895109042
Bar do Bené,"Rua João Batista Sampaio, 150 | São Pedro, Juiz de Fora - MG",São Pedro,https://comidadibuteco.com.br/buteco/3699-revision-v1/,-21.775494512060437,-43.37801928717406
Bar do Jorge,"Avenida Pedro Henrique Krambeck, 210 | São Pedro, Juiz de Fora - MG",São Pedro,https://comidadibuteco.com.br/buteco/bar-do-jorge/,-21.77249557620366,-43.38214691353723
Bar do Luiz,"Avenida Eugênio do Nascimento, 240 | Aeroporto, Juiz de Fora - MG",Aeroporto,https://comidadibuteco.com.br/buteco/3707-revision-v1/,-21.792425569108026,-43.3825675420089
Bar do Marquim,"Rua Santo Antônio, 10 | Centro, Juiz de Fora - MG",Centro,https://comidadibuteco.com.br/buteco/bar-do-marquim/,-21.136663849999998,-44.26321461100663
Bar do Passarinho,"Rua Rafael Zacarias, 500 | Democrata, Juiz de Fora - MG",Democrata,https://comidadibuteco.com.br/buteco/bar-do-passarinho/,-21.748286720354695,-43.36521090891972
Bar do Tião,"Rua José Appolônio dos Reis, 312 | Aeroporto, Juiz de Fora - MG",Aeroporto,https://comidadibuteco.com.br/buteco/bar-do-tiao/,-21.787293515151354,-43.382824475441055
Bar do Torresmo,"Avenida Darcy Vargas, 31 | Ipiranga, Juiz de Fora - MG",Ipiranga,https://comidadibuteco.com.br/buteco/10328-revision-v1/,-21.798472792687328,-43.34693096951639
Bar du Buneco,"Rua Eugênio Fontainha, 337 | Manoel Honório, Juiz de Fora - MG",Manoel Honório,https://comidadibuteco.com.br/buteco/bar-du-buneco/,-21.741357789361974,-43.34877390230853
Bar du Chico,"Rua Olegário Maciel, 1147 | Paineiras, Juiz de Fora - MG",Paineiras,https://comidadibuteco.com.br/buteco/bar-du-chico/,-21.768495373441763,-43.35506064936745
Bar e Restaurante Silva,"Avenida Olavo Bilac, 647 | Cerâmica, Juiz de Fora - MG",Cerâmica,https://comidadibuteco.com.br/buteco/bar-e-restaurante-silva/,-21.73952020540275,-43.381047746875836
Bar Santa Moderação,"Rua Torreões, 57 | Santa Luzia, Juiz de Fora - MG",Santa Luzia,https://comidadibuteco.com.br/buteco/bar-santa-moderacao/,-21.785455289184277,-43.34559531740688
Bar Zé Nei,"R. Profa. Francisca Lopes, 87 - Eldorado, Juiz de Fora - MG, 36046-167",,https://comidadibuteco.com.br/buteco/bar-ze-nei/,,
Batata d’ Mola,"Avenida dos Andradas, 183 | Juiz de Fora - MG",Juiz de Fora - MG,https://comidadibuteco.com.br/buteco/batata-d-mola/,-21.750752836730197,-43.35446769103212
Budega do Papai,"Rua Paracatu, 349 | Santa Terezinha, Juiz de Fora - MG",Santa Terezinha,https://comidadibuteco.com.br/buteco/budega-do-papai/,-21.73308162363916,-43.357311076057954
Buteco do Príncipe,"Rua Sebastião Ferreira, 2 | São Pedro, Juiz de Fora - MG",São Pedro,https://comidadibuteco.com.br/buteco/buteco-do-principe/,-21.771897472997857,-43.37848141022161
Butiquim da Fábrica,"R. Luís de Camões, 74 - São Mateus, Juiz de Fora - MG, 36025-170",,https://comidadibuteco.com.br/buteco/butiquim-da-fabrica/,,
Caminho da Roça,"Rua Espírito Santo, 738 | Centro, Juiz de Fora - MG",Centro,https://comidadibuteco.com.br/buteco/3715-revision-v1/,-21.7648895610625,-43.352029551809686
Casarão Bar,"Rua Cesário Alvim, 241 | São Bernardo, Juiz de Fora - MG",São Bernardo,https://comidadibuteco.com.br/buteco/casarao-bar/,-21.755514491901852,-43.33938249962659
Don Juan Gastronomia e Eventos,"Rua Eloy Américo Mendes, 195 | Aeroporto, Juiz de Fora - MG",Aeroporto,https://comidadibuteco.com.br/buteco/don-juan-gastronomia-e-eventos/,-21.78932753817028,-43.38012055556437
Dona Joaquina Bar e restaurante,"Rua Antônio Guimarães, 70 | Santo Antônio, Juiz de Fora - MG",Santo Antônio,https://comidadibuteco.com.br/buteco/dona-joaquina-bar-e-restaurante/,-21.772680114432685,-43.3094378591165
Empório do Sabor,"Rua Henrique de Novais, 166 | Lourdes, Juiz de Fora - MG",Lourdes,https://comidadibuteco.com.br/buteco/3717-revision-v1/,-21.76884748280006,-43.3265013736758
Estação Persa,"Rua Paracatu, 243 | Santa Terezinha, Juiz de Fora - MG",Santa Terezinha,https://comidadibuteco.com.br/buteco/3719-revision-v1/,-21.73308162363916,-43.357311076057954
Ibitibar,"Rua Ibitiguaia, 462 | Santa Luzia, Juiz de Fora - MG",Santa Luzia,https://comidadibuteco.com.br/buteco/ibitibar/,-21.78502281273795,-43.34648125322656
Informal Bar e Restaurante,"Rua da Abolição, 54 | Jardim Glória, Juiz de Fora - MG",Jardim Glória,https://comidadibuteco.com.br/buteco/informal-bar-e-restaurante/,-21.75282861503223,-43.358367799419376
Murad Buteco Árabe,"Rua Olegário Maciel, 1944 | Paineiras, Juiz de Fora - MG",Paineiras,https://comidadibuteco.com.br/buteco/murad-buteco-arabe/,-21.768495373441763,-43.35506064936745
Nosso Bar JF,"Rua Tomé de Souza, 92 | Benfica, Juiz de Fora - MG",Benfica,https://comidadibuteco.com.br/buteco/nosso-bar-jf/,-21.690428177425016,-43.434667507741636
Pão Moiado,"Rua José Nunes Leal, 45 | Santa Luzia, Juiz de Fora - MG",Santa Luzia,https://comidadibuteco.com.br/buteco/pao-moiado/,-21.790019396866875,-43.346666456090034
Petisqueira,"Avenida Eugênio do Nascimento, 475 | Aeroporto, Juiz de Fora - MG",Aeroporto,https://comidadibuteco.com.br/buteco/petisqueira/,-21.785005925342233,-43.374287738189494
Recanto dos Manacás,"Rua Oswaldo Gouvea, 941 | Juiz de Fora - MG",Juiz de Fora - MG,https://comidadibuteco.com.br/buteco/recanto-dos-manacas/,,
Reza Forte,"Rua Doutor João Pinheiro, 356 | Jardim Glória, Juiz de Fora - MG",Jardim Glória,https://comidadibuteco.com.br/buteco/reza-forte/,-21.75298706785439,-43.35735724269162
Seu Espeto,"Rua José Lourenço, 448 | São Pedro, Juiz de Fora - MG",São Pedro,https://comidadibuteco.com.br/buteco/seu-espeto/,-21.770170121204664,-43.37876895109042
Super Lazin,"Avenida Sete de Setembro, 1167 | Juiz de Fora - MG",Juiz de Fora - MG,https://comidadibuteco.com.br/buteco/super-lazin/,-21.760212795055285,-43.340548668780706
Varanda Restô Beer,"Rua Barão de Santa Helena, 596 | Granbery, Juiz de Fora - MG",Granbery,https://comidadibuteco.com.br/buteco/varanda-resto-beer/,-21.765512217214198,-43.34436505784276
Vista Serrana,"Rua Onofre Mendes, 173 | Passos, Juiz de Fora - MG",Passos,https://comidadibuteco.com.br/buteco/vista-serrana/,-21.777453439676805,-43.34973066344788
Zaka’s Gastro Beer,"Rua Tenente Paulo Maria Delage, 292 | Borboleta, Juiz de Fora - MG",Borboleta,https://comidadibuteco.com.br/buteco/zakas-gastro-beer/,-21.75530496107201,-43.37621518246807
