name,address,bairro,link,lat,lng
A Bodega Cachaçaria,"Avenida Governador Carlos de Lima Cavalcante, 4035 | Casa Caiada, Olinda - PE",Casa Caiada,https://comidadibuteco.com.br/buteco/a-bodega-cachacaria/,-7.979038251936939,-34.83644060486691
Andrews Bar e Comedoria,"Segunda Travessa Djalma Dutra, 4 | Olinda - PE",Olinda - PE,https://comidadibuteco.com.br/buteco/andrews-bar-e-comedoria/,-8.025851781435147,-34.86825517378123
Balcón Petiscaria,"Rua Alfredo Osório, 257 | Tamarineira, Recife - PE",Tamarineira,https://comidadibuteco.com.br/buteco/balcon-petiscaria/,-8.028155494601492,-34.906395284401256
Bar do Cabo,"Rua Nanuque, 37 | Recife - PE",Recife - PE,https://comidadibuteco.com.br/buteco/4051-revision-v1/,,
Bar do Lula,"Rua Engenheiro Otávio Arantes | Imbiribeira, Recife - PE",Imbiribeira,https://comidadibuteco.com.br/buteco/bar-do-lula/,-8.086132767973593,-34.90890167191728
Bar do Peixe,"Rua Albacora, 26 | Brasília Teimosa, Recife - PE",Brasília Teimosa,https://comidadibuteco.com.br/buteco/4054-revision-v1/,-8.085657761780766,-34.87995700083546
Bar do Ró,"Rua São João, 345 | Guadalupe, Olinda - PE",Guadalupe,https://comidadibuteco.com.br/buteco/bar-do-ro/,-8.010544764984372,-34.85457380498949
Bar do Vizinho,"Rua da Santa Cruz | Boa Vista, Recife - PE",Boa Vista,https://comidadibuteco.com.br/buteco/10360-revision-v1/,-8.063031110767268,-34.88857216671219
Barraca Beer,"Rua Padre Lemos, 785 | Casa Amarela, Recife - PE",Casa Amarela,https://comidadibuteco.com.br/buteco/barraca-beer/,-8.0214161,-34.9214026
Barteco,"Rua do Bom Pastor, 366 | Iputinga, Recife - PE",Iputinga,https://comidadibuteco.com.br/buteco/barteco/,-8.0439108,-34.9396973
Belém,"Rua Pedro Alves, 79 | Encruzilhada, Recife - PE",Encruzilhada,https://comidadibuteco.com.br/buteco/belem-2/,-8.0362434,-34.892072
Bistrô do Alto,"Rua Santa Isabel, 655 | Recife - PE",Recife - PE,https://comidadibuteco.com.br/buteco/bistro-do-alto/,-7.943704326767305,-35.02677035401156
Bodega Bento Muniz,"Rua Manuel Salvador, 140 - Casa | Barro, Recife - PE",Barro,https://comidadibuteco.com.br/buteco/bodega-bento-muniz/,,
Boteco da Pequena,"Rua Agrestina, 5318 | Jaboatão dos Guararapes - PE",Jaboatão dos Guararapes - PE,https://comidadibuteco.com.br/buteco/4069-revision-v1/,-8.22247405,-34.9559688
Boteco Feijoada do Bukas,"Rua Doutor Luiz Inácio Pessoa de Melo, 11 | Boa Viagem, Recife - PE",Boa Viagem,https://comidadibuteco.com.br/buteco/boteco-feijoada-do-bukas/,-8.139653820727546,-34.906614425265616
Boteco Nem a Pau Juvenal,"Rua da Regeneração, 640 | Arruda, Recife - PE",Arruda,https://comidadibuteco.com.br/buteco/boteco-nem-a-pau-juvenal/,-8.021423023590062,-34.88649525382035
Budega do Meu Lindo,"Rua Aderbal de Melo, 251 | Ipsep, Recife - PE",Ipsep,https://comidadibuteco.com.br/buteco/budega-do-meu-lindo/,-8.10900205,-34.924806613588956
Caldinho do Phellipe,"Avenida Poeta Vinicius de Moraes, 140 | Olinda - PE",Olinda - PE,https://comidadibuteco.com.br/buteco/10364-revision-v1/,,
Cangaço Petiscaria,"Rua Pianista Isnar Mariano, 12 | Imbiribeira, Recife - PE",Imbiribeira,https://comidadibuteco.com.br/buteco/cangaco-petiscaria/,-8.0957499,-34.9167937
Cantinho Sertanejo,"Rua André de Albuquerque, 171 | Barro, Recife - PE",Barro,https://comidadibuteco.com.br/buteco/cantinho-sertanejo/,-8.0946081,-34.9429474
Casa de Déia Petiscos,"Rua José Nunes da Cunha, 4853  | Jaboatão dos Guararapes - PE",Jaboatão dos Guararapes - PE,https://comidadibuteco.com.br/buteco/casa-de-deia-petiscos/,-8.18016767897512,-34.918560361455064
Casa de Mainha Comedoria,"Rua Comendador Sá Barreto, 5462 | Candeias, Recife - PE",Candeias,https://comidadibuteco.com.br/buteco/casa-de-mainha-comedoria/,-8.191043813051001,-34.92116608079715
Casa de Tonho,"Rua Coronel Alberto Lundgren, 582 | Bairro Novo, Olinda - PE",Bairro Novo,https://comidadibuteco.com.br/buteco/casa-de-tonho/,-8.001753784091758,-34.84380233476116
Casa do Chico,"Rua Aníbal Falcão, 9 | Graças, Recife - PE",Graças,https://comidadibuteco.com.br/buteco/casa-do-chico/,-8.048024960729807,-34.90213503888119
Dirmantelo Bar,"Estrada Das Ubáias, 241 | Casa Forte, Recife - PE",Casa Forte,https://comidadibuteco.com.br/buteco/dirmantelo-bar/,-8.0305039,-34.9188103
Dobradinha do Regis,"Avenida Doutor Dirceu Velloso Toscano de Brito, 281 | Pina, Recife - PE",Pina,https://comidadibuteco.com.br/buteco/dobradinha-do-regis/,-8.08876023286126,-34.89306139550042
Dùn Ajeun Culinária Afro Diasporica,"Rua da Santa Cruz, 174 | Boa Vista, Recife - PE",Boa Vista,https://comidadibuteco.com.br/buteco/dun-ajeun-culinaria-afro-diasporica/,-8.063031110767268,-34.88857216671219
Empório Coroa,"Rua Severina Maria da Conceição, 400 | Olinda - PE",Olinda - PE,https://comidadibuteco.com.br/buteco/emporio-coroa/,-8.003867484427413,-34.85129761117932
Espetinho da Ceca,"Rua Chã de Alegria, 235 | Bomba do Hemetério, Recife - PE",Bomba do Hemetério,https://comidadibuteco.com.br/buteco/espetinho-da-ceca/,-8.02064419363768,-34.90505888621003
Espetinho no Prato,"Rua Cruzeiro do Forte, 574 | Boa Viagem, Recife - PE",Boa Viagem,https://comidadibuteco.com.br/buteco/4090-revision-v1/,-8.1371818,-34.9130173
Esquina 85,"Rua do Machado, 85 | Arruda, Recife - PE",Arruda,https://comidadibuteco.com.br/buteco/esquina-85/,-8.023423214106327,-34.889882014548235
Esquina do Malte,"Avenida Tenente Felipe Bandeira de Melo, 97 - C | Areias, Recife - PE",Areias,https://comidadibuteco.com.br/buteco/10369-revision-v1/,-8.09415579641082,-34.930799737013714
Fi do Lunga,"Travessa Antônio Machado, 9 | Carmo, Olinda - PE",Carmo,https://comidadibuteco.com.br/buteco/fi-do-lunga/,-8.014869000000001,-34.852252750000005
Kitanda Mangangá,"Rua São Fidélis, 9 | Cohab, Recife - PE",Cohab,https://comidadibuteco.com.br/buteco/kitanda-manganga/,-8.120735128082124,-34.95448766259064
Llamita Empanadas Y Bar,"Rua das Pernambucanas, 30 | Graças, Recife - PE",Graças,https://comidadibuteco.com.br/buteco/llamita-empanadas-y-bar/,-8.051346168701194,-34.899806562120766
Mamute Beer,"Avenida Beira Rio, 1303 | Torre, Recife - PE",Torre,https://comidadibuteco.com.br/buteco/mamute-beer/,-8.04178717270139,-34.90516938618768
MB Cantina De Fogo,"Rua Bezerra da Palma, 213 | Aldeia, Camaragibe - PE",Aldeia,https://comidadibuteco.com.br/buteco/mb-cantina-de-fogo/,-7.988474733263373,-34.97443659216612
O Chalé Bar Karaokê,"Avenida Norte, 5407 | Recife - PE",Recife - PE,https://comidadibuteco.com.br/buteco/o-chale-bar-karaoke/,-7.8970265341801,-35.05801386931479
Quintal da Gaúcha,"Rua José Nunes da Cunha, 4592 | Jaboatão dos Guararapes - PE",Jaboatão dos Guararapes - PE,https://comidadibuteco.com.br/buteco/quintal-da-gaucha/,-8.18016767897512,-34.918560361455064
Quintal do Maninho,"Rua Cônego Romeu, 142 | Boa Viagem, Recife - PE",Boa Viagem,https://comidadibuteco.com.br/buteco/quintal-do-maninho/,-8.138267988153858,-34.90628811454416
Raffa Beer,"Avenida Hélio Falcão, 577 | Boa Viagem, Recife - PE",Boa Viagem,https://comidadibuteco.com.br/buteco/raffa-beer/,-8.1254728,-34.9030562
Seu Peu Gastropub,"Rua Carneiro Vilela, 665 | Encruzilhada, Recife - PE",Encruzilhada,https://comidadibuteco.com.br/buteco/seu-peu-gastropub/,-8.0394959,-34.89414495
Sup Bar Candeias,"Rua Antônio Carlos de Oliveira, 5666 | Candeias, Jaboatão dos Guararapes - PE",Candeias,https://comidadibuteco.com.br/buteco/sup-bar-candeias/,-8.204618681918756,-34.922773499397636
Tropicana Sabor e Arte,"Rua Dona Magina Pontual, 32 | Boa Viagem, Recife - PE",Boa Viagem,https://comidadibuteco.com.br/buteco/tropicana-sabor-e-arte/,-8.1298507,-34.9029944
Vieira Bar e Restaurante,"Rua Araguari, 47 | Brasília Teimosa, Recife - PE",Brasília Teimosa,https://comidadibuteco.com.br/buteco/vieira-bar-e-restaurante/,-8.089574549999998,-34.8809174
Whiskritório,"Avenida Pinheiros, 322 | Imbiribeira, Recife - PE",Imbiribeira,https://comidadibuteco.com.br/buteco/whiskritorio/,-8.0906171,-34.9117494
