name,address,bairro,link,lat,lng
Abará da Vovó,"Rua Direita de Santo Antônio, 16 | Santo Antônio, Salvador - BA",Santo Antônio,https://comidadibuteco.com.br/buteco/10256-revision-v1/,-12.96489704257068,-38.50481523268669
Abará Temperado da Irá,"Rua Renato Berbert de Castro, 587 - Praia do Flamengo | Stella Maris, Salvador - BA",Stella Maris,https://comidadibuteco.com.br/buteco/abara-temperado-da-ira/,-12.915830565127166,-38.30900372421431
Aquiles Gourmet,"Rua Genipapeiro, 41 | Salvador - BA",Salvador - BA,https://comidadibuteco.com.br/buteco/aquiles-gourmet/,-12.74076951955094,-38.76568405957777
Bakkana’s Bar,"Rua Boa Vista de Brotas, 11 | Salvador - BA",Salvador - BA,https://comidadibuteco.com.br/buteco/bakkanas-bar-2/,-12.98274990207915,-38.49997890172174
Bar D’ Gente,"Rua Thomaz Gonzaga, 144 | Pernambués, Salvador - BA",Pernambués,https://comidadibuteco.com.br/buteco/bar-d-gente/,-12.96646370282458,-38.46280670331922
Bar do Bonito,"Rua Palame, 9 | Itapuã, Salvador - BA",Itapuã,https://comidadibuteco.com.br/buteco/bar-do-bonito/,-12.950246370183333,-38.368509606754664
Bar do Chico,"Rua Arthur de Azevedo Machado, 65 | Stiep, Salvador - BA",Stiep,https://comidadibuteco.com.br/buteco/bar-do-chico/,-12.985864005188697,-38.44849947314637
Bar do Papá,"Rua Edgard Loureiro, 7 | Resgate, Salvador - BA",Resgate,https://comidadibuteco.com.br/buteco/bar-do-papa/,-12.959354004149573,-38.464573318027945
Bar Koisa Nossa (Os Internacionais),"Travessa Engenheiro Allioni, 1 | Salvador - BA",Salvador - BA,https://comidadibuteco.com.br/buteco/3426-revision-v1/,,
Bar Xique Xique,"Rua Rockfeller, 39 | Barris, Salvador - BA",Barris,https://comidadibuteco.com.br/buteco/xique-xique/,-12.984636510123886,-38.51160791118363
Biritódromo Bar de Praia,"Rua Souza Uzel, 4 | Federação, Salvador - BA",Federação,https://comidadibuteco.com.br/buteco/biritodromo-bar-de-praia/,-12.996998350128225,-38.510515259613534
Bistrô9,"Avenida José Joaquim Seabra, 151 | Salvador - BA",Salvador - BA,https://comidadibuteco.com.br/buteco/bistro9/,-12.969129669103472,-38.50175437610165
Botecar Bar e Petiscaria,"Rua Andaraí, 723 | Resgate, Salvador - BA",Resgate,https://comidadibuteco.com.br/buteco/botecar-bar-e-petiscaria/,-12.961824215926361,-38.461629874020026
Boteco Aggada,"Ladeira do Carmo, 9 | Santo Antônio, Salvador - BA",Santo Antônio,https://comidadibuteco.com.br/buteco/boteco-aggada/,-12.969160102857984,-38.50755754342271
Boteco da Magaly,"Rua Agnaldo Azevedo, 292 | Stella Maris, Salvador - BA",Stella Maris,https://comidadibuteco.com.br/buteco/boteco-da-magaly/,-12.933236140278886,-38.340056571421485
Boteco da Mídia,"Rua Nadir Mendonça, 16 | Pituaçu, Salvador - BA",Pituaçu,https://comidadibuteco.com.br/buteco/5607-revision-v1/,-12.97305533930747,-38.418479090994445
Boteco da Sereia,"Beco da Sereia, 7 | Saúde, Salvador - BA",Saúde,https://comidadibuteco.com.br/buteco/boteco-da-sereia/,-12.97370413611485,-38.50482726880348
Boteco Delícia de Pirão,"Estrada Ilha do Mocambo, 1 | Salvador - BA",Salvador - BA,https://comidadibuteco.com.br/buteco/boteco-delicia-de-pirao/,-12.932310785416362,-38.40932580433896
Boteco do Araújo,"Rua José Mariz Pinto, 60 | Baixa de Quintas, Salvador - BA",Baixa de Quintas,https://comidadibuteco.com.br/buteco/boteco-do-araujo/,-12.959651528871477,-38.49660899823891
Boteco do Bigú,"Rua da Mouraria, 104 | Nazaré, Salvador - BA",Nazaré,https://comidadibuteco.com.br/buteco/boteco-do-bigu/,-12.978900527624027,-38.51086113938846
Boteco do Paulista,"Rua da Paciência, 263 | Rio Vermelho, Salvador - BA",Rio Vermelho,https://comidadibuteco.com.br/buteco/boteco-do-paulista/,-13.01079335,-38.49442320056518
Boteco do Vale,"Vila São Roque, 413  | Salvador - BA",Salvador - BA,https://comidadibuteco.com.br/buteco/boteco-do-vale/,-12.98401852296005,-38.480915717232705
Cabana da Praia,"Avenida Iemanjá, 12 | Boca do Rio, Salvador - BA",Boca do Rio,https://comidadibuteco.com.br/buteco/cabana-da-praia/,-12.983186800283223,-38.43430156886455
Caldas la Boemia,"Rua Teódulo de Albuquerque, 303 | Cabula VI, Salvador - BA",Cabula VI,https://comidadibuteco.com.br/buteco/caldas-la-boemia/,-12.954709502338774,-38.43753704465685
Cantina dos Artistas,"Avenida Oceano Pacífico, 4 | Salvador - BA",Salvador - BA,https://comidadibuteco.com.br/buteco/cantina-dos-artistas/,-12.930952131184783,-38.43248969276021
Casa Amarela Bar,"Rua do Carmo, 14 | Santo Antônio, Salvador - BA",Santo Antônio,https://comidadibuteco.com.br/buteco/casa-amarela-bar/,-12.968201143192939,-38.50735964791207
Casa da Carmem,"Rua Visconde de Mauá, 174 | Dois de Julho, Salvador - BA",Dois de Julho,https://comidadibuteco.com.br/buteco/casa-de-carmem/,-12.980632069676904,-38.51787472086038
Casa da Renatinha,"Rua Gratidão, 5 | Salvador - BA",Salvador - BA,https://comidadibuteco.com.br/buteco/casa-da-renatinha/,-12.939444390382024,-38.37807899071845
Chão Boteco,"Rua Fonte do Boi, 12 | Rio Vermelho, Salvador - BA",Rio Vermelho,https://comidadibuteco.com.br/buteco/chao-boteco/,-13.01509502507513,-38.48530721445888
Check-in Gastro bar,"Estrada do Matadouro, 2 | Salvador - BA",Salvador - BA,https://comidadibuteco.com.br/buteco/check-in-gastro-bar/,-12.888308444497088,-38.43321594274461
Cia do Sertão,"Rua das Hortênsias, 288 | Pituba, Salvador - BA",Pituba,https://comidadibuteco.com.br/buteco/cia-do-sertao/,-12.994019,-38.4580285
Crisana,"Rua Artêmio Castro Valente, 295 | Salvador - BA",Salvador - BA,https://comidadibuteco.com.br/buteco/3434-autosave-v1/,-12.930731814238722,-38.41401314512874
Escritório da Gadhega,"Rua Góes Calmon, 33 | Saúde, Salvador - BA",Saúde,https://comidadibuteco.com.br/buteco/escritorio-da-gadhega/,-12.970856403769087,-38.505879938128466
Força’s Bar,"Rua Antônio Carlos Magalhães, 54 | Capelinha, Salvador - BA",Capelinha,https://comidadibuteco.com.br/buteco/forcas-bar-2/,-12.920362153691004,-38.47476917454277
Geni’s Bar,"Rua Nossa Senhora do Resgate, 554 | Resgate, Salvador - BA",Resgate,https://comidadibuteco.com.br/buteco/genis-bar/,-12.96112828377212,-38.46344233664308
Kitanda Gastrobar,"Avenida Oceânica, 297 | Barra, Salvador - BA",Barra,https://comidadibuteco.com.br/buteco/kitanda-emporio-gastrobar/,-13.009690799035653,-38.521608132430046
La Barca Restaurante e Petiscaria,"Rua Mario Covas, 1430 | Salvador - BA",Salvador - BA,https://comidadibuteco.com.br/buteco/la-barca-restaurante-e-petiscaria/,-12.934345755462571,-38.41308580287776
Lampião na Cozinha,"Estrada da Liberdade, 498 |Salvador - BA",Salvador - BA,https://comidadibuteco.com.br/buteco/lampiao-na-cozinha/,-12.94891302180273,-38.494436091166854
Margarida Bar e Restaurante,"Rua Osvaldo Cruz, 66 | Rio Vermelho, Salvador - BA",Rio Vermelho,https://comidadibuteco.com.br/buteco/margarida-bar-e-restaurante/,-13.013088549999999,-38.487818421903356
Mocambinho Bar e Restaurante,"Rua da Faísca, 12 | Dois de Julho, Salvador - BA",Dois de Julho,https://comidadibuteco.com.br/buteco/mocambinho-bar/,-12.9828196,-38.5169649
O Boteco do Bocca,"Rua 1 Tv. Luiz Tarquínio Pontes, 223 | Centro, Lauro de Freitas - BA",Centro,https://comidadibuteco.com.br/buteco/o-boteco-do-bocca/,,
Obá Gastrobar,"Rua das Rosas, 148 | Pituba, Salvador - BA",Pituba,https://comidadibuteco.com.br/buteco/oba-gastrobar/,-12.9924826,-38.4552632
Oh Pirão,"Rua Almiro Mario de Almeida, 34 | Salvador - BA",Salvador - BA,https://comidadibuteco.com.br/buteco/oh-pirao/,,
Ôshalé Delícias do Interior,"Rua José Mariz Pinto, 18 | Baixa de Quintas, Salvador - BA",Baixa de Quintas,https://comidadibuteco.com.br/buteco/oshale-delicias-do-interior/,-12.959679,-38.4966295
Outbecko Comida Bruta,"Rua Território do Rio Branco, 125 | Pituba, Salvador - BA",Pituba,https://comidadibuteco.com.br/buteco/outbecko-comida-bruta/,-13.0002497,-38.4579767
Oxente Bar e Petiscaria,"Rua Silveira Martins, 445 | Cabula, Salvador - BA",Cabula,https://comidadibuteco.com.br/buteco/oxente-bar-e-petiscaria/,-12.956282,-38.4643219
Panela de Barro,"Rua Tamoio, S/N - Conjunto Senhor do Bonfim , Salvador - BA",,https://comidadibuteco.com.br/buteco/panela-de-barro/,,
Petiscaria Carnavalle,"Al. Campinas de Pirajá, 88  | Campinas de Pirajá, Salvador - BA",Campinas de Pirajá,https://comidadibuteco.com.br/buteco/petiscaria-carnavalle/,-12.9113145,-38.4659129
Point Campo Grande,"Avenida Sete de Setembro, 1474 | Salvador - BA",Salvador - BA,https://comidadibuteco.com.br/buteco/point-campo-grande/,-13.0072842,-38.5328487
Point do gigante,"Rua Álvaro da Franca Rocha, 5 | Salvador - BA",Salvador - BA,https://comidadibuteco.com.br/buteco/point-do-gigante/,-12.8958154,-38.4238536
R’Canto do Pascoal,"Rua Direita de Santo Antônio, 1 | Santo Antônio, Salvador - BA",Santo Antônio,https://comidadibuteco.com.br/buteco/rcanto-do-pascoal/,-12.9650796,-38.5049276
Recanto do Moura,"Rua Resende de Jesus, 6 | São Caetano, Salvador - BA",São Caetano,https://comidadibuteco.com.br/buteco/recanto-do-moura/,,
Rita da Lambreta,"Avenida Iemanjá, 110 | Boca do Rio, Salvador - BA",Boca do Rio,https://comidadibuteco.com.br/buteco/rita-da-lambreta/,-12.9810516,-38.4315605
Rose’s Bar,"Rua Aracati, 161 | Lobato, Salvador - BA",Lobato,https://comidadibuteco.com.br/buteco/roses-bar-2/,-12.9254126,-38.4854415
Solar Boteco,"Rua Desembargador Castelo Branco de Baixo, 1 | Salvador - BA",Salvador - BA,https://comidadibuteco.com.br/buteco/solar-boteco/,-12.982656985713426,-38.52010387125905
Sollar Vibes,"Rua Desembargador Castelo Branco, S/N| Solar do Unhão, Salvador - BA",Solar do Unhão,https://comidadibuteco.com.br/buteco/sollar-vibes/,,
Sushili,"Rua Alexandre de Gusmão, 50 | Salvador - BA",Salvador - BA,https://comidadibuteco.com.br/buteco/10287-revision-v1/,,
Tamo Junto Botequim,"Largo da Saúde, 2 | Saúde, Salvador - BA",Saúde,https://comidadibuteco.com.br/buteco/tamo-junto-botequim/,-12.972451,-38.5061925
Tonha Preta Cozinha & Afeto,"Rua do Meio, 116 | Rio Vermelho, Salvador - BA",Rio Vermelho,https://comidadibuteco.com.br/buteco/tonha-preta-cozinha-afeto/,-13.0132053,-38.4872702
