name,address,bairro,link,lat,lng
A Ribeira,"Alameda Ribeiro da Silva, 909 | São Paulo - SP",São Paulo - SP,https://comidadibuteco.com.br/buteco/a-ribeira/,-23.53390155,-46.65132647511862
Acarajé e Delícias da Bahia,"Rua Arcipreste Ezequias, 116 - Ipiranga - São Paulo - SP",Vila Monumento,https://comidadibuteco.com.br/buteco/acaraje-e-delicias-da-bahia/,-23.587196695833335,-46.61598240833334
Alemão Grill Espetinhos,"Avenida Waldemar Carlos Pereira, 1918 - Vila Talarico - São Paulo - SP",,https://comidadibuteco.com.br/buteco/alemao-grill-espetinhos/,,
Almirante Bar e Restaurante,"Rua Agostinho Gomes, 2253 | Ipiranga, São Paulo - SP",Ipiranga,https://comidadibuteco.com.br/buteco/almirante-bar-e-restaurante/,-23.58685516888762,-46.604160030185945
Altino Deck Bar,"Rua Doutor José Augusto de Oliveira, 1 | Presidente Altino, Osasco - SP",Presidente Altino,https://comidadibuteco.com.br/buteco/altino-deck-bar/,,
Aquino’s Restaurante,"Rua da Imprensa, 517 | Vila São José, São Paulo - SP",Vila São José,https://comidadibuteco.com.br/buteco/aquinos-restaurante/,-20.8197228,-49.3660382
Armazém Mandacaru,"Rua Dona Antonia de Queiroz, 5 | Consolação, São Paulo - SP",Consolação,https://comidadibuteco.com.br/buteco/armazem-mandacaru/,-23.5530904,-46.6521575
Balcão 304,"Rua Pitangueiras, 304 | Mirandópolis, São Paulo - SP",Mirandópolis,https://comidadibuteco.com.br/buteco/balcao-304/,-23.610042662885064,-46.63874625956473
Bambuteco,"Avenida Corifeu de Azevedo Marques, 1560 | Butantã, São Paulo - SP",Butantã,https://comidadibuteco.com.br/buteco/bambuteco/,-23.5748121,-46.7288435
Bar & Espetaria Pai Berto,"Rua Emília Marengo, 1374 | São Paulo - SP",São Paulo - SP,https://comidadibuteco.com.br/buteco/bar-espetaria-pai-berto/,-23.55349575260911,-46.56154121428529
Bar Altas Horas,"Rua do Oratório, 1632 | Mooca, São Paulo - SP",Mooca,https://comidadibuteco.com.br/buteco/bar-altas-horas/,-23.573321717920198,-46.58102509030037
Bar Amigos do Zé,"Praça Franklin Roosevelt, 92 | São Paulo - SP",São Paulo - SP,https://comidadibuteco.com.br/buteco/bar-amigos-do-ze/,-23.5491537,-46.6463834
Bar Bambu,"Rua Conselheiro Moreira de Barros, 1084 | Santana, São Paulo - SP",Santana,https://comidadibuteco.com.br/buteco/bar-bambu/,-23.492056645283263,-46.63397336590789
Bar de Vidro,"Avenida Álvaro Machado Pedrosa, 476 | Parada Inglesa, São Paulo - SP",Parada Inglesa,https://comidadibuteco.com.br/buteco/3233-revision-v1/,-23.48427265160328,-46.606102638383945
Bar do Alê,"Rua Eugênia de Carvalho, 871 | Vila Matilde, São Paulo - SP",Vila Matilde,https://comidadibuteco.com.br/buteco/bar-do-ale/,-23.54094322907547,-46.52594728357662
Bar do Berinjela,"Praça Vinte de Janeiro, 67 | Vila Regente Feijó, São Paulo - SP",Vila Regente Feijó,https://comidadibuteco.com.br/buteco/3235-revision-v1/,,
Bar do Cumpadi,"Rua Amoípira, 304 | Campo Grande - São Paulo - SP",Campo Grande - São Paulo - SP,https://comidadibuteco.com.br/buteco/bar-do-cumpadi/,-23.669102873619973,-46.691543561648665
Bar do Edu,"Rua Doutor Andrade Pertence, 209 | Vila Olímpia, São Paulo - SP",Vila Olímpia,https://comidadibuteco.com.br/buteco/bar-do-edu/,-23.60424555,-46.676144050000005
Bar do Jão,"Rua Antônio Lobo, 33 | Penha de França, São Paulo - SP",Penha de França,https://comidadibuteco.com.br/buteco/3259-autosave-v1/,-23.5241635,-46.546334650000006
Bar do Lopes,"Rua Francisco Dias, 635 | Bosque da Saúde, São Paulo - SP",Bosque da Saúde,https://comidadibuteco.com.br/buteco/bar-do-lopes/,-23.61345444581732,-46.61552557821697
Bar do Miltinho,"Rua Luís Góis, 14 | Mirandópolis, São Paulo - SP",Mirandópolis,https://comidadibuteco.com.br/buteco/bar-do-miltinho/,-23.6039859,-46.6275918
Bar do Nino,"R. Amoípira, 298 - Campo Grande - São Paulo - SP",Vila Arriete,https://comidadibuteco.com.br/buteco/bar-do-nino/,-23.669102873619973,-46.691543561648665
Bar do Preguinho,"Avenida Guilherme Giorgi, 775 | Vila Carrão, São Paulo - SP",Vila Carrão,https://comidadibuteco.com.br/buteco/bar-do-preguinho/,-23.553160639298635,-46.54463916896425
Bar do Rafa Abbatepietro Steak & Beer,"Rua Carlos Weber, 426 | Vila Leopoldina, São Paulo - SP",Vila Leopoldina,https://comidadibuteco.com.br/buteco/bar-do-rafa-abbatepietro-steak-beer/,-23.525242044296576,-46.732996691269776
Bar do Renato,"Rua Miguel Teles Júnior, 595 | Cambuci, São Paulo - SP",Cambuci,https://comidadibuteco.com.br/buteco/bar-do-renato/,,
Bar do Vardema,"Rua Guaimbé, 412 | Mooca, São Paulo - SP",Mooca,https://comidadibuteco.com.br/buteco/3246-revision-v1/,-23.56333239955994,-46.593878872645725
Bar do Vital,"Rua Fernando de Albuquerque, 26 | Consolação, São Paulo - SP",Consolação,https://comidadibuteco.com.br/buteco/bar-do-vital/,-23.5546819,-46.6568583
Bar do Zé Alegre,"Rua José Mascarenhas, 912 | Vila Matilde, São Paulo - SP",Vila Matilde,https://comidadibuteco.com.br/buteco/bar-do-ze-alegre/,-23.538040083168315,-46.527284536633665
Bar do Zé Guatás,"Avenida Afonso Mariano Fagundes, 665 | Saúde, São Paulo - SP",Saúde,https://comidadibuteco.com.br/buteco/24136-revision-v1/,-23.618179477073472,-46.6471103058218
Bar e Mercearia Carauari,"Praça Carauari, 8 - São Paulo - SP",Jardim Japão,https://comidadibuteco.com.br/buteco/bar-e-mercearia-carauari/,-23.50816666153071,-46.58529143802345
Bar e Mercearia Mundial,"Rua Embiruçú, 211 | São Paulo - SP",São Paulo - SP,https://comidadibuteco.com.br/buteco/bar-e-mercearia-mundial/,-23.558645913707487,-46.22527146942588
Bar Flechas 400,"Rua das Flechas, 400 | São Paulo - SP",São Paulo - SP,https://comidadibuteco.com.br/buteco/bar-flechas-400/,-23.651471014077064,-46.670670133339414
Bar Ovo,"Rua Dr. Cesário Mota Júnior, 569 - Vila Buarque, São Paulo - SP",,https://comidadibuteco.com.br/buteco/bar-ovo/,,
Barxaréu,"Rua Joaquim Távora, 1150 | Vila Mariana, São Paulo - SP",Vila Mariana,https://comidadibuteco.com.br/buteco/barxareu/,-23.58702203343138,-46.64347268659313
BEC Bar,"Rua Padre Garcia Velho, 72 | Pinheiros, São Paulo - SP",Pinheiros,https://comidadibuteco.com.br/buteco/bec-bar/,-23.562102,-46.6934388
Bodega da Maria Macaxeira,"Rua Fortunato, 298 | São Paulo - SP",São Paulo - SP,https://comidadibuteco.com.br/buteco/bodega-da-maria-macaxeira/,-23.539602433597036,-46.65154873500153
Boteco 647,"Avenida Guilherme Giorgi, 261 | Vila Carrão, São Paulo - SP",Vila Carrão,https://comidadibuteco.com.br/buteco/boteco-647/,-23.548983467776942,-46.54248547896744
Boteco Amarelinho,"Rua Pedro Gomes Cardim, 246 - Morumbi, São Paulo - SP",Morumbi,https://comidadibuteco.com.br/buteco/boteco-amarelinho/,-23.59135717822162,-46.72112150112458
Boteco do Andreotti,"Rua Mossâmedes, 210 | Vila Santo Estevão, São Paulo - SP",Vila Santo Estevão,https://comidadibuteco.com.br/buteco/boteco-802/,,
Boteco do chico,"Rua Costa Aguiar, 2124 | Ipiranga, São Paulo - SP",Ipiranga,https://comidadibuteco.com.br/buteco/boteco-do-chico/,-23.592854226868845,-46.605794213799925
Boteco do Murruga,"Avenida Mascote, 80 | Vila Mascote, São Paulo - SP",Vila Mascote,https://comidadibuteco.com.br/buteco/3227-autosave-v1/,-23.64861730509564,-46.66569409694617
Botecoterapia,"Rua Antônio Lourenço, 20 | Água Fria, São Paulo - SP",Água Fria,https://comidadibuteco.com.br/buteco/botecoterapia/,-23.48561868145091,-46.619617389939954
Botequinho Luis Gois,"Rua Luís Góis, 1565 | Mirandópolis, São Paulo - SP",Mirandópolis,https://comidadibuteco.com.br/buteco/botequinho-luis-gois/,-23.604093579545456,-46.64292596477272
Brazucas Wines – Bar e Bistrô,"Avenida Damasceno Vieira, 751 | Vila Mascote, São Paulo - SP",Vila Mascote,https://comidadibuteco.com.br/buteco/brazucas-wines-bar-e-bistro-2/,-23.646251584244233,-46.664698813943026
Bruto’s Bar,"Avenida Professor Papini, 388 | Cidade Dutra, São Paulo - SP",Cidade Dutra,https://comidadibuteco.com.br/buteco/brutus-bar/,-23.71275837022168,-46.70474681382594
Buteco da Vila,"Avenida Melchert, 676 | Vila Matilde, São Paulo - SP",Vila Matilde,https://comidadibuteco.com.br/buteco/buteco-da-vila-2/,-23.535807237652612,-46.530959057644175
Buteco Lion Beer,"Av. Sapopemba, 14022 | Jardim Adutora, São Paulo - SP",Jardim Adutora,https://comidadibuteco.com.br/buteco/buteco-lion-beer/,,
Buteko da Paulinha,"Rua Medeiros de Albuquerque, 192 | Jardim das Bandeiras, São Paulo - SP",Jardim das Bandeiras,https://comidadibuteco.com.br/buteco/buteko-da-paulinha/,,
Caetano Bar e Espeto,"Rua Manoel de Paiva, 337 | Vila Mariana, São Paulo - SP",Vila Mariana,https://comidadibuteco.com.br/buteco/caetano-bar-e-espeto/,-23.582728367825894,-46.63624735906737
Caiubier,"Rua Caiubi, 928 | Perdizes, São Paulo - SP",Perdizes,https://comidadibuteco.com.br/buteco/3264-revision-v1/,-23.537420402695307,-46.676259922730885
Calçadão do Peixe,"Rua Paiaguás, 496 | Campo Belo, São Paulo - SP",Campo Belo,https://comidadibuteco.com.br/buteco/calcadao-do-peixe/,-23.62732643966713,-46.66917752394913
Cana Mana,"Rua Guararapes, 1942 | Brooklin Paulista, São Paulo - SP",Brooklin Paulista,https://comidadibuteco.com.br/buteco/cana-mana/,,
Canto da Marechal,"Rua Marechal Hermes da Fonseca, 271 | Santana, São Paulo - SP",Santana,https://comidadibuteco.com.br/buteco/canto-da-marechal/,-23.497699378675367,-46.63211019285005
Casa Bolinho de Bacalhau,"Rua Azevedo Soares, 499 | Vila Gomes Cardim, São Paulo - SP",Vila Gomes Cardim,https://comidadibuteco.com.br/buteco/3266-revision-v1/,-23.549886,-46.5718481
Casa de Lanches Puppy,"Avenida Paulista, 1009 | Bela Vista, São Paulo - SP",Bela Vista,https://comidadibuteco.com.br/buteco/casa-de-lanches-puppy/,-23.56469164792689,-46.652469146439266
Casa do Norte Osmar,"Rua da Polka, 125 | Jardim Pedro José Nunes, São Paulo - SP",Jardim Pedro José Nunes,https://comidadibuteco.com.br/buteco/casa-do-norte-osmar/,-23.505925509448023,-46.461571852708715
Casa do Sírio,"Rua João Maffei, 202 | Jardim Bonfiglioli, São Paulo - SP",Jardim Bonfiglioli,https://comidadibuteco.com.br/buteco/casa-do-sirio/,,
Chega Mais Espeto,"Rua Santo Antônio, 492 | Bela Vista, São Paulo - SP",Bela Vista,https://comidadibuteco.com.br/buteco/chega-mais-espetos/,-23.3732513,-45.6717326
Chiquinho Bar e Espetinhos,"Rua Doutor Homem de Melo, 952 | Perdizes, São Paulo - SP",Perdizes,https://comidadibuteco.com.br/buteco/chiquinho-bar-e-espetinhos/,-23.534045316249575,-46.67300779660039
Chopp do Alemão,"Rua Doutor José Paulo, 103 | Chácara Seis de Outubro, São Paulo - SP",Chácara Seis de Outubro,https://comidadibuteco.com.br/buteco/3271-revision-v1/,,
Comida Di Rei,"Rua José Coimbra, 339 | Vila Andrade, São Paulo - SP",Vila Andrade,https://comidadibuteco.com.br/buteco/comida-di-rei/,-23.623799406366377,-46.74065253746722
Cookinhouse,"Avenida Ede, 383 | Vila Ede, São Paulo - SP",Vila Ede,https://comidadibuteco.com.br/buteco/cookinhouse/,-23.4956409,-46.5930616
Cris Parrilla Bar,"Rua República do Iraque, 1326 | Parque Colonial, São Paulo - SP",Parque Colonial,https://comidadibuteco.com.br/buteco/cris-parrilla-bar/,,
Deck Snooker Bar,"Avenida Professor Luiz Ignácio Anhaia Mello, 1820 | Vila Prudente, São Paulo - SP",Vila Prudente,https://comidadibuteco.com.br/buteco/deck-snooker-bar/,-23.58275874876452,-46.57023937210156
DiBrito,"Rua Desembargador do Vale, 115 | Perdizes, São Paulo - SP",Perdizes,https://comidadibuteco.com.br/buteco/dibrito/,-23.533244693032035,-46.68257974545101
DoDuda Gastronomia & Bar,"Rua Vale Formoso, 360 | Chácara Santo Antônio (Zona Leste), São Paulo - SP",Chácara Santo Antônio (Zona Leste),https://comidadibuteco.com.br/buteco/doduda-gastronomia-bar/,,
Dona Inês,"Rua Conselheiro Ramalho, 647 | Bela Vista, São Paulo - SP",Bela Vista,https://comidadibuteco.com.br/buteco/dona-ines/,-23.55755181083513,-46.644428120599414
Dona Silvana Bolinhos de Bacalhau,"Avenida Antônio Barbosa da Silva Sandoval, 92 | Interlagos, São Paulo - SP",Interlagos,https://comidadibuteco.com.br/buteco/dona-silvana-bolinhos-de-bacalhau/,-23.69390185968843,-46.70454558245844
Dona Sinhá,"Rua Cipriano Barata, 3232 | Ipiranga, São Paulo - SP",Ipiranga,https://comidadibuteco.com.br/buteco/dona-sinha/,-23.5984074,-46.6043541
Dona Zica,"Av. Professor Alceu Maynard Araújo, 81 | Vila Cruzeiro, São Paulo - SP",Vila Cruzeiro,https://comidadibuteco.com.br/buteco/dona-zica/,,
Dr. Bakana,"Rua Dr. Fonseca Brasil, 118 | Vila Andrade - São Paulo - SP",Vila Andrade - São Paulo - SP,https://comidadibuteco.com.br/buteco/dr-bakana/,-23.628727373671754,-46.73480973445085
Elek Gastrobar,"Rua Padre Marchetti, 228 | Ipiranga, São Paulo - SP",Ipiranga,https://comidadibuteco.com.br/buteco/elek-gastrobar/,-23.58842972786394,-46.60867620187956
Empório Chef Ale Caldas,"Rua Santa Maria, 313 | Tatuapé, São Paulo - SP",Tatuapé,https://comidadibuteco.com.br/buteco/emporio-chef-ale-caldas/,-23.53250815227504,-46.569258346444045
Empório do Churrasco Prime Vila Mazzei,"Rua Manuel Gaya, 880 | Vila Nova Mazzei, São Paulo - SP",Vila Nova Mazzei,https://comidadibuteco.com.br/buteco/emporio-do-churrasco-prime/,,
Encanto Mineiro,"Rua Deputado Lacerda Franco, 77 | Pinheiros, São Paulo - SP",Pinheiros,https://comidadibuteco.com.br/buteco/encanto-mineiro/,-23.5641725,-46.6899473
Espaço Pau Brasil,"Rua Vitório Mazzei, 10 | Vila Isolina Mazzei, São Paulo - SP",Vila Isolina Mazzei,https://comidadibuteco.com.br/buteco/3309-autosave-v1/,-23.496707177043195,-46.604867607711306
Esquina da Ta,"Rua Guaianazes, 1461 | Campos Elíseos, São Paulo - SP",Campos Elíseos,https://comidadibuteco.com.br/buteco/esquina-da-ta/,,
Esquina do Acarajé,"Rua Comandante Taylor, 293 | Ipiranga, São Paulo - SP",Ipiranga,https://comidadibuteco.com.br/buteco/esquina-do-acaraje/,-23.600238732077763,-46.59738716403366
Esquina do Oscar,"Rua Oscar Rodrigues Cajado Filho, 22 | Vila São Francisco, São Paulo - SP",Vila São Francisco,https://comidadibuteco.com.br/buteco/esquina-do-oscar/,,
Esquina Lisboa Restaurante e Lanchonete,"Rua Pamplona, 648 | Jardim Paulista, São Paulo - SP",Jardim Paulista,https://comidadibuteco.com.br/buteco/esquina-lisboa-restaurante-e-lanchonete/,-23.564199764716857,-46.65425255248125
Estação J Gourmet,"Rua Aurélia, 1060 | Vila Romana, São Paulo - SP",Vila Romana,https://comidadibuteco.com.br/buteco/estacao-j-gourmet/,-23.5245454716843,-46.697767630685796
Estação Miranda Bar,"Rua da Imprensa, 424 | Vila São José, São Paulo - SP",Vila São José,https://comidadibuteco.com.br/buteco/estacao-miranda-bar/,-20.8197228,-49.3660382
Feijão do Norte,"Avenida São Luís, 187 | República, São Paulo - SP",República,https://comidadibuteco.com.br/buteco/10119-revision-v1/,-23.5462385,-46.642408848379986
Fênix Bar e Restaurante,"Rua Alvarenga Peixoto, 353 | Vila Anastácio, São Paulo - SP",Vila Anastácio,https://comidadibuteco.com.br/buteco/fenix-bar-e-restaurante/,-23.513344165126533,-46.72212683926545
Flamingo Bar,"Rua Guaimbé, 205 | Mooca, São Paulo - SP",Mooca,https://comidadibuteco.com.br/buteco/3283-revision-v1/,-23.56706255,-46.5948215
Fofoca’s Bar,"Rua Norma Pieruccini Giannotti, 366 | Barra Funda, São Paulo - SP",Barra Funda,https://comidadibuteco.com.br/buteco/fofocas-bar/,,
Garagem 632,"Avenida Águas de São Pedro, 338 | Vila Pauliceia, São Paulo - SP",Vila Pauliceia,https://comidadibuteco.com.br/buteco/garagem-632/,-23.48751965,-46.61374511982248
Geração de Minas,"Avenida Mascote, 1048 | Vila Mascote, São Paulo - SP",Vila Mascote,https://comidadibuteco.com.br/buteco/geracao-de-minas/,-23.6460963,-46.6703802
Geraldinho Bar e Brasa,"Rua Frei Canísio, 143 | Vila Sofia, São Paulo - SP",Vila Sofia,https://comidadibuteco.com.br/buteco/geraldinho-bar-e-brasa/,,
Giba’s Baixarias,"Rua José Wasth Rodrigues, 36 | Vila Maria, São Paulo - SP",Vila Maria,https://comidadibuteco.com.br/buteco/gibas-baixarias/,-23.511829675,-46.5943092
Giba’s Bar e Restaurante,"Avenida Lins de Vasconcelos, 1113 | Cambuci, São Paulo - SP",Cambuci,https://comidadibuteco.com.br/buteco/gibas-bar-e-restaurante/,-23.568323130657998,-46.621878139803904
Hettwer Ipiranga,"Rua General Lecor, 175 | Ipiranga, São Paulo - SP",Ipiranga,https://comidadibuteco.com.br/buteco/hettwer-ipiranga/,-23.59150691900611,-46.601863214596385
Hop & Malt Moema,"Avenida Iraí, 807 | Moema, São Paulo - SP",Moema,https://comidadibuteco.com.br/buteco/hop-malt-moema/,-23.61268445,-46.66038258968088
Império Lucena Grill ll,"Rua Duílio, 490 | Água Branca, São Paulo - SP",Água Branca,https://comidadibuteco.com.br/buteco/imperio-lucena-grill-ll/,-23.525477676014255,-46.693161574073265
Jangada do Velho Chico,"Avenida Mazzei, 855 | Vila Mazzei, São Paulo - SP",Vila Mazzei,https://comidadibuteco.com.br/buteco/jangada-do-velho-chico/,-23.4743324,-46.6018219
Ladeira Bar,"Rua Aimberê, 855 | Perdizes, São Paulo - SP",Perdizes,https://comidadibuteco.com.br/buteco/ladeira-bar/,-23.537594127624306,-46.681660584530384
Lameras bar,"Rua Amália de Noronha, 343 | Pinheiros, São Paulo - SP",Pinheiros,https://comidadibuteco.com.br/buteco/lameras-bar/,-23.5523345,-46.6811648
Lanchonete Juvenal Parada,"Rua da Mooca, 2895 | Mooca, São Paulo - SP",Mooca,https://comidadibuteco.com.br/buteco/lanchonete-juvenal-parada/,-23.5557555,-46.597013
Legião Rock’n Beer,"Avenida Olavo Bilac, 213 | Km 18, Osasco - SP",Km 18,https://comidadibuteco.com.br/buteco/legiao-rockn-beer/,-23.530109822618165,-46.79568189423514
Lewis Bar,"Rua Crasso, 140 | Água Branca, São Paulo - SP",Água Branca,https://comidadibuteco.com.br/buteco/3286-revision-v1/,-23.52403955205859,-46.68972746851178
Luiiza Bar,"Rua Brigadeiro Galvão, 32 | Barra Funda, São Paulo - SP",Barra Funda,https://comidadibuteco.com.br/buteco/luiiza-bar/,,
Mathilda Wine Bar,"Rua Coronel Bento José de Carvalho, 339 | Vila Matilde, São Paulo - SP",Vila Matilde,https://comidadibuteco.com.br/buteco/mathilda-wine-bar/,-23.54099308410107,-46.52426872295264
Meio a Meio Bar,"Avenida Casa Verde, 2800 | Casa Verde, São Paulo - SP",Casa Verde,https://comidadibuteco.com.br/buteco/meio-a-meio-bar/,-23.5064295,-46.6659572
Mena Gastrobar,"Praça Ituzaingó, 42 | Vila Regente Feijó, São Paulo - SP",Vila Regente Feijó,https://comidadibuteco.com.br/buteco/mena-gastrobar/,,
Mestre Gusta Gastrobar,"Praça Comandante Eduardo de Oliveira, 20 | Parque Edu Chaves, São Paulo - SP",Parque Edu Chaves,https://comidadibuteco.com.br/buteco/mestre-gusta-gastrobar/,-23.47738014412065,-46.56489951528168
Ministro Gastrobar,"Rua Bartira, 429 | Perdizes, São Paulo - SP",Perdizes,https://comidadibuteco.com.br/buteco/ministro-gastrobar/,-23.5383107,-46.6721808
Mise en Place,"Rua José de Siqueira, 45 | Freguesia do Ó, São Paulo - SP",Freguesia do Ó,https://comidadibuteco.com.br/buteco/mise-en-place/,-23.49992625,-46.69924115
Mortadela Brasil,"Rua da Cantareira, 306 | Centro, São Paulo - SP",Centro,https://comidadibuteco.com.br/buteco/mortadela-brasil/,-23.39090594194318,-46.30665010570985
Nordeztino Bar e Restaurante,"Avenida Nossa Senhora do Loreto, 836 | Vila Medeiros, São Paulo - SP",Vila Medeiros,https://comidadibuteco.com.br/buteco/nordeztino-bar-e-restaurante/,-23.4883596,-46.5834342
O EmBARxador,"Rua Embaixador João Neves da Fontoura, 306 | Santana, São Paulo - SP",Santana,https://comidadibuteco.com.br/buteco/embarxador/,-23.501784308357053,-46.63375300295911
O Engenheiro,"Avenida Engenheiro Caetano Álvares, 6578 | Jardim Paraíso, São Paulo - SP",Jardim Paraíso,https://comidadibuteco.com.br/buteco/o-engenheiro/,,
O Mirandês,"Rua Canuto do Val, 216 | Vila Buarque, São Paulo - SP",Vila Buarque,https://comidadibuteco.com.br/buteco/o-mirandes/,,
OCUPA cozinha e bar,"Rua Brigadeiro Galvão, 102 | Barra Funda, São Paulo - SP",Barra Funda,https://comidadibuteco.com.br/buteco/ocupa-cozinha-e-bar/,,
Os Demitidos,"Avenida Luca, 42 | Chácara Mafalda, São Paulo - SP",Chácara Mafalda,https://comidadibuteco.com.br/buteco/os-demitidos/,-23.57231705,-46.56138195910809
Othê Gastrobar,"Rua Mourato Coelho, 789 | São Paulo - SP",São Paulo - SP,https://comidadibuteco.com.br/buteco/othe-gastrobar/,-23.5607712,-46.6896563
Pancho’s Villa,"Travessa do Atleta, 2 | São Paulo - SP",São Paulo - SP,https://comidadibuteco.com.br/buteco/panchos-villa/,-23.507640780129613,-46.54379442929743
Parrilla Smoker Bar,"Rua Padre José de Anchieta, 444 | Santo Amaro, São Paulo - SP",Santo Amaro,https://comidadibuteco.com.br/buteco/parrilla-smoker-bar/,-23.653112388177767,-46.69810850049506
Pé na Lapa,"Rua Coriolano, 336 | Água Branca, São Paulo - SP",Água Branca,https://comidadibuteco.com.br/buteco/pe-na-lapa/,,
Pierê Bar,"Rua dos Pinheiros, 953 | Pinheiros, São Paulo - SP",Pinheiros,https://comidadibuteco.com.br/buteco/piere-bar/,-23.5674428,-46.686925
Pompéia Bar,"Rua Doutor Augusto de Miranda, 712 | Vila Pompeia, São Paulo - SP",Vila Pompeia,https://comidadibuteco.com.br/buteco/3305-revision-v1/,-23.529648539389665,-46.688702949978236
Quintal Paraense,"Rua Horácio Vergueiro Rudge, 535 | Casa Verde, São Paulo - SP",Casa Verde,https://comidadibuteco.com.br/buteco/quintal-paraense/,-23.511352284185428,-46.662959735397315
Rasgueira Bar,"Rua Gabriele D'Annunzio, 1346 | Campo Belo, São Paulo - SP",Campo Belo,https://comidadibuteco.com.br/buteco/rasgueira-bar/,-23.618743991877135,-46.68137648440344
Restaurante Boa Vista,"Rua São Benedito, 1762 | Santo Amaro, São Paulo - SP",Santo Amaro,https://comidadibuteco.com.br/buteco/restaurante-boa-vista/,-23.64741188736869,-46.70067245944244
Restaurante do Magyver,"Rua Florianópolis, 785 | Vila Bertioga, São Paulo - SP",Vila Bertioga,https://comidadibuteco.com.br/buteco/restaurante-do-magyver/,-22.368596805614132,-46.933629164361584
Restaurante Don Limón,"Rua Deputado João Sussumu Hirata, 804 | Vila Andrade, São Paulo - SP",Vila Andrade,https://comidadibuteco.com.br/buteco/restaurante-don-limon/,-23.62951730242699,-46.73144179360954
Samambaia Bar e Lanches,"Rua Maria Otília, 110 | Vila Regente Feijó, São Paulo - SP",Vila Regente Feijó,https://comidadibuteco.com.br/buteco/samambaia-bar-e-lanches/,,
Sampagrill Bar & Espetaria,"Rua Fernando de Albuquerque, 105 | Consolação, São Paulo - SP",Consolação,https://comidadibuteco.com.br/buteco/sampagrill-bar-espetaria/,-23.552735490594735,-46.65909780091448
Senhor Petiscos,"Rua Martinho Guedes, 19 | Saúde, São Paulo - SP",Saúde,https://comidadibuteco.com.br/buteco/senhor-petiscos/,,
Sergin Drinks,"Rua Professor Antônio Pena, 28 | Jardim São Paulo, São Paulo - SP",Jardim São Paulo,https://comidadibuteco.com.br/buteco/sergin-drinks/,-23.49030955,-46.6120988
Sqma Drinks,"Rua Oliveira Brandão, 211 | Conjunto Residencial José Bonifácio, São Paulo - SP",Conjunto Residencial José Bonifácio,https://comidadibuteco.com.br/buteco/sqma-drinks/,,
TBC Barbecue,"Rua Bom Sucesso, 886 | Tatuapé, São Paulo - SP",Tatuapé,https://comidadibuteco.com.br/buteco/tbc-barbecue/,-23.54707208715072,-46.57734605745886
Tiago’s Bar,"Rua do Oratório, 2534 | Alto da Mooca, São Paulo - SP",Alto da Mooca,https://comidadibuteco.com.br/buteco/tiagos-bar/,,
Tiro Liro,"Rua Cotoxó, 1185 | Vila Pompeia, São Paulo - SP",Vila Pompeia,https://comidadibuteco.com.br/buteco/10154-revision-v1/,-23.536867,-46.6881497
Toca do Buda,"Avenida Júlio Buono, 2210 | Vila Gustavo, São Paulo - SP",Vila Gustavo,https://comidadibuteco.com.br/buteco/toca-do-buda/,,
Tomás Uma Bar,"Rua Martim Francisco, 707 | Santa Cecília, São Paulo - SP",Santa Cecília,https://comidadibuteco.com.br/buteco/tomas-uma-bar/,-23.54007267434667,-46.65316396300057
Toronto Bar e Restaurante,"Rua Comendador Miguel Calfat, 681 | Vila Nova Conceição, São Paulo - SP",Vila Nova Conceição,https://comidadibuteco.com.br/buteco/toronto-bar-e-restaurante/,,
Trecão Bar,"Rua Nova Louza, 66 | Vila Firmiano Pinto, São Paulo - SP",Vila Firmiano Pinto,https://comidadibuteco.com.br/buteco/trecao-bar/,-23.59480898828708,-46.61972122629467
Trem Doido,"Rua Lisboa, 306 | Cerqueira César, São Paulo - SP",Cerqueira César,https://comidadibuteco.com.br/buteco/trem-doido/,-23.565641921062117,-46.660720097091264
Turma do Espetto,"Avenida Serafim Gonçalves Pereira, 460 | Parque Novo Mundo, São Paulo - SP",Parque Novo Mundo,https://comidadibuteco.com.br/buteco/turma-do-espetto/,-23.520395617475728,-46.56796699611651
União de Minas,"Rua Amleto Farro, 491 | Santo Amaro, São Paulo - SP",Santo Amaro,https://comidadibuteco.com.br/buteco/uniao-de-minas/,-23.650033625986396,-46.71184147114201
Veiacos Bar & Petiscaria,"Rua Pestana, 11 | Vila Guaca, São Paulo - SP",Vila Guaca,https://comidadibuteco.com.br/buteco/veiacos-bar-petiscaria-2/,,
Venezas,"Rua Brigadeiro Jordão, 294 | Ipiranga, São Paulo - SP",Ipiranga,https://comidadibuteco.com.br/buteco/venezas-2/,-23.58651628117144,-46.60293193454175
Ver-o-Bar,"Rua General Júlio Marcondes Salgado, 351 | Campos Elíseos, São Paulo - SP",Campos Elíseos,https://comidadibuteco.com.br/buteco/ver-o-bar/,,
Vila Show Bar & Restaurante,"Avenida Mascote, 225 | Vila Mascote, São Paulo - SP",Vila Mascote,https://comidadibuteco.com.br/buteco/vila-show-bar-restaurante/,-23.64861730509564,-46.66569409694617
Villa Grill Bar e Prosa,"Rua Andaraí, 141 | Vila Maria Baixa - São Paulo - SP",Vila Maria Baixa - São Paulo - SP,https://comidadibuteco.com.br/buteco/villa-grill-bar-e-prosa/,,
Viva Boteco,"Avenida Esperantina, 287 | Parque das Paineiras, São Paulo - SP",Parque das Paineiras,https://comidadibuteco.com.br/buteco/viva-boteco/,-23.534675748842922,-46.47639459463216
Xepa Bar,"Rua Jaguaribe, 529 | Santa Cecília, São Paulo - SP",Santa Cecília,https://comidadibuteco.com.br/buteco/xepa-bar/,-23.5417213,-46.6530344
Xopotó Rio de Minas,"Rua Clodomiro Amazonas, 442 | Itaim Bibi, São Paulo - SP",Itaim Bibi,https://comidadibuteco.com.br/buteco/xopoto-rio-de-minas/,-23.588161633988538,-46.67888723445091
Zé Vicente Bar,"Rua Borges, 437 | Parada Inglesa, São Paulo - SP",Parada Inglesa,https://comidadibuteco.com.br/buteco/ze-vicente-bar/,-23.4825716,-46.6011043
